Division,Store Banner,Store No,Store Name,Address,City,Prv,Postal Code,Telephone,Fax
Market,Valu-Mart,2729,Store 2729,Unknown,Unknown,ON,Unknown,Unknown,Unknown
Other,Other,3629,Store 3629,Unknown,Unknown,Other,Unknown,Unknown,Unknown
Other,Other,3687,Store 3687,Unknown,Unknown,Other,Unknown,Unknown,Unknown
Other,Other,7206,Store 7206,Unknown,Unknown,Other,Unknown,Unknown,Unknown
Discount,Nofrills,7441,Store 7441,Unknown,Unknown,ON,Unknown,Unknown,Unknown
Discount,Maxi,7560,Store 7560,Unknown,Unknown,QC,Unknown,Unknown,Unknown
Discount,no name store,9484,Store 9484,Unknown,Unknown,ON,Unknown,Unknown,Unknown
Discount,no name store,9485,Store 9485,Unknown,Unknown,ON,Unknown,Unknown,Unknown
Discount,no name store,9486,Store 9486,Unknown,Unknown,ON,Unknown,Unknown,Unknown
Market,Fortinos,4014,Store 4014,Unknown,Unknown,ON,Unknown,Unknown,Unknown
Discount,Nofrills,9474,Store 9474,Unknown,Unknown,AB,Unknown,Unknown,Unknown
Discount,Maxi,8853,Store 8853,Unknown,Unknown,QC,Unknown,Unknown,Unknown
Super Market,Fortinos,39,Store 39,Unknown,Unknown,ON,Unknown,Unknown,Unknown
Super Market,Fortinos,46,Store 46,Unknown,Unknown,ON,Unknown,Unknown,Unknown
Super Market,Fortinos,48,Store 48,Unknown,Unknown,ON,Unknown,Unknown,Unknown
Super Market,Fortinos,55,Store 55,Unknown,Unknown,ON,Unknown,Unknown,Unknown
Super Market,Fortinos,65,Store 65,Unknown,Unknown,ON,Unknown,Unknown,Unknown
Super Market,Fortinos,67,Store 67,Unknown,Unknown,ON,Unknown,Unknown,Unknown
Super Market,Fortinos,78,Store 78,Unknown,Unknown,ON,Unknown,Unknown,Unknown
Super Market,Fortinos,86,Store 86,Unknown,Unknown,ON,Unknown,Unknown,Unknown
Super Market,Fortinos,96,Store 96,Unknown,Unknown,ON,Unknown,Unknown,Unknown
Emerging,Real Canadian Liquor Store,101,Store 101,Unknown,Unknown,AB,Unknown,Unknown,Unknown
Super Market,Fortinos,199,Store 199,Unknown,Unknown,ON,Unknown,Unknown,Unknown
Super Market,Wholesale Club,202,Store 202,Unknown,Unknown,ON,Unknown,Unknown,Unknown
Super Market,Wholesale Club,209,Store 209,Unknown,Unknown,ON,Unknown,Unknown,Unknown
Super Market,Wholesale Club,210,Store 210,Unknown,Unknown,ON,Unknown,Unknown,Unknown
Super Market,Wholesale Club,211,Store 211,Unknown,Unknown,ON,Unknown,Unknown,Unknown
Super Market,Wholesale Club,214,Store 214,Unknown,Unknown,ON,Unknown,Unknown,Unknown
Super Market,Wholesale Club,215,Store 215,Unknown,Unknown,ON,Unknown,Unknown,Unknown
Super Market,Wholesale Club,217,Store 217,Unknown,Unknown,ON,Unknown,Unknown,Unknown
Super Market,Wholesale Club,220,Store 220,Unknown,Unknown,ON,Unknown,Unknown,Unknown
Super Market,Wholesale Club,226,Store 226,Unknown,Unknown,ON,Unknown,Unknown,Unknown
Super Market,Wholesale Club,231,Store 231,Unknown,Unknown,ON,Unknown,Unknown,Unknown
Super Market,Wholesale Club,238,Store 238,Unknown,Unknown,ON,Unknown,Unknown,Unknown
Super Market,Wholesale Club,244,Store 244,Unknown,Unknown,ON,Unknown,Unknown,Unknown
Super Market,Wholesale Club,245,Store 245,Unknown,Unknown,ON,Unknown,Unknown,Unknown
Super Market,Wholesale Club,248,Store 248,Unknown,Unknown,ON,Unknown,Unknown,Unknown
Super Market,Wholesale Club,249,Store 249,Unknown,Unknown,ON,Unknown,Unknown,Unknown
Super Market,Wholesale Club,254,Store 254,Unknown,Unknown,ON,Unknown,Unknown,Unknown
Hard Discount,nofrills,262,Store 262,Unknown,Unknown,ON,Unknown,Unknown,Unknown
Hard Discount,nofrills,266,Store 266,Unknown,Unknown,ON,Unknown,Unknown,Unknown
Hard Discount,nofrills,291,Store 291,Unknown,Unknown,ON,Unknown,Unknown,Unknown
Super Market,Fortinos,300,Store 300,Unknown,Unknown,ON,Unknown,Unknown,Unknown
Super Market,Wholesale Club,301,Store 301,Unknown,Unknown,NB,Unknown,Unknown,Unknown
Super Market,Wholesale Club,307,Store 307,Unknown,Unknown,NS,Unknown,Unknown,Unknown
Super Market,Atlantic Superstore,309,Store 309,Unknown,Unknown,NS,Unknown,Unknown,Unknown
Super Market,Atlantic Superstore,311,Store 311,Unknown,Unknown,NB,Unknown,Unknown,Unknown
Super Market,Atlantic Superstore,312,Store 312,Unknown,Unknown,NS,Unknown,Unknown,Unknown
Super Market,Atlantic Superstore,313,Store 313,Unknown,Unknown,NS,Unknown,Unknown,Unknown
Super Market,Atlantic Superstore,314,Store 314,Unknown,Unknown,PE,Unknown,Unknown,Unknown
Super Market,Atlantic Superstore,315,Store 315,Unknown,Unknown,NB,Unknown,Unknown,Unknown
Super Market,Atlantic Superstore,316,Store 316,Unknown,Unknown,NB,Unknown,Unknown,Unknown
Super Market,Atlantic Superstore,317,Store 317,Unknown,Unknown,NS,Unknown,Unknown,Unknown
Super Market,Atlantic Superstore,318,Store 318,Unknown,Unknown,NS,Unknown,Unknown,Unknown
Super Market,Atlantic Superstore,321,Store 321,Unknown,Unknown,NS,Unknown,Unknown,Unknown
Super Market,Atlantic Superstore,325,Store 325,Unknown,Unknown,NB,Unknown,Unknown,Unknown
Super Market,Atlantic Superstore,326,Store 326,Unknown,Unknown,NB,Unknown,Unknown,Unknown
Super Market,Atlantic Superstore,329,Store 329,Unknown,Unknown,NB,Unknown,Unknown,Unknown
Super Market,Atlantic Superstore,331,Store 331,Unknown,Unknown,NS,Unknown,Unknown,Unknown
Super Market,Atlantic Superstore,332,Store 332,Unknown,Unknown,NB,Unknown,Unknown,Unknown
Super Market,Atlantic Superstore,336,Store 336,Unknown,Unknown,NS,Unknown,Unknown,Unknown
Super Market,Atlantic Superstore,337,Store 337,Unknown,Unknown,NS,Unknown,Unknown,Unknown
Super Market,Atlantic Superstore,339,Store 339,Unknown,Unknown,NS,Unknown,Unknown,Unknown
Super Market,Atlantic Superstore,341,Store 341,Unknown,Unknown,NB,Unknown,Unknown,Unknown
Super Market,Atlantic Superstore,344,Store 344,Unknown,Unknown,NS,Unknown,Unknown,Unknown
Super Market,Wholesale Club,347,Store 347,Unknown,Unknown,NL,Unknown,Unknown,Unknown
Super Market,Atlantic Superstore,350,Store 350,Unknown,Unknown,NB,Unknown,Unknown,Unknown
Super Market,Atlantic Superstore,351,Store 351,Unknown,Unknown,NS,Unknown,Unknown,Unknown
Super Market,Atlantic Superstore,352,Store 352,Unknown,Unknown,NS,Unknown,Unknown,Unknown
Super Market,Atlantic Superstore,353,Store 353,Unknown,Unknown,NB,Unknown,Unknown,Unknown
Super Market,Atlantic Superstore,354,Store 354,Unknown,Unknown,NS,Unknown,Unknown,Unknown
Super Market,Atlantic Superstore,357,Store 357,Unknown,Unknown,NB,Unknown,Unknown,Unknown
Super Market,Atlantic Superstore,358,Store 358,Unknown,Unknown,NS,Unknown,Unknown,Unknown
Super Market,Atlantic Superstore,359,Store 359,Unknown,Unknown,NB,Unknown,Unknown,Unknown
Super Market,Atlantic Superstore,361,Store 361,Unknown,Unknown,NB,Unknown,Unknown,Unknown
Super Market,Atlantic Superstore,362,Store 362,Unknown,Unknown,NB,Unknown,Unknown,Unknown
Super Market,Atlantic Superstore,364,Store 364,Unknown,Unknown,NB,Unknown,Unknown,Unknown
Super Market,Atlantic Superstore,366,Store 366,Unknown,Unknown,NB,Unknown,Unknown,Unknown
Super Market,Atlantic Superstore,367,Store 367,Unknown,Unknown,NS,Unknown,Unknown,Unknown
Super Market,Atlantic Superstore,368,Store 368,Unknown,Unknown,NS,Unknown,Unknown,Unknown
Super Market,Atlantic Superstore,369,Store 369,Unknown,Unknown,NS,Unknown,Unknown,Unknown
Super Market,Atlantic Superstore,372,Store 372,Unknown,Unknown,NS,Unknown,Unknown,Unknown
Super Market,Atlantic Superstore,373,Store 373,Unknown,Unknown,NS,Unknown,Unknown,Unknown
Super Market,Atlantic Superstore,374,Store 374,Unknown,Unknown,NB,Unknown,Unknown,Unknown
Super Market,Atlantic Superstore,375,Store 375,Unknown,Unknown,NS,Unknown,Unknown,Unknown
Super Market,Atlantic Superstore,376,Store 376,Unknown,Unknown,PE,Unknown,Unknown,Unknown
Super Market,Atlantic Superstore,377,Store 377,Unknown,Unknown,NS,Unknown,Unknown,Unknown
Super Market,Atlantic Superstore,378,Store 378,Unknown,Unknown,NS,Unknown,Unknown,Unknown
Super Market,Atlantic Superstore,379,Store 379,Unknown,Unknown,NS,Unknown,Unknown,Unknown
Super Market,Atlantic Superstore,380,Store 380,Unknown,Unknown,NS,Unknown,Unknown,Unknown
Super Market,Atlantic Superstore,383,Store 383,Unknown,Unknown,NS,Unknown,Unknown,Unknown
Super Market,Atlantic Superstore,384,Store 384,Unknown,Unknown,NS,Unknown,Unknown,Unknown
Super Market,Atlantic Superstore,385,Store 385,Unknown,Unknown,NS,Unknown,Unknown,Unknown
Super Market,Atlantic Superstore,386,Store 386,Unknown,Unknown,PE,Unknown,Unknown,Unknown
Super Market,Atlantic Superstore,388,Store 388,Unknown,Unknown,PE,Unknown,Unknown,Unknown
Super Market,Atlantic Superstore,389,Store 389,Unknown,Unknown,NB,Unknown,Unknown,Unknown
Super Market,Atlantic Superstore,396,Store 396,Unknown,Unknown,NB,Unknown,Unknown,Unknown
Super Market,Wholesale Club,399,Store 399,Unknown,Unknown,NS,Unknown,Unknown,Unknown
Super Market,Your Independent Grocer,405,Store 405,Unknown,Unknown,ON,Unknown,Unknown,Unknown
Super Market,Your Independent Grocer,408,Store 408,Unknown,Unknown,ON,Unknown,Unknown,Unknown
Super Market,Your Independent Grocer,421,Store 421,Unknown,Unknown,ON,Unknown,Unknown,Unknown
Super Market,valu-mart,440,Store 440,Unknown,Unknown,ON,Unknown,Unknown,Unknown
Super Market,Your Independent Grocer,476,Store 476,Unknown,Unknown,ON,Unknown,Unknown,Unknown
Super Market,Zehrs,500,Store 500,Unknown,Unknown,ON,Unknown,Unknown,Unknown
Super Market,Zehrs,505,Store 505,Unknown,Unknown,ON,Unknown,Unknown,Unknown
Super Market,Zehrs,507,Store 507,Unknown,Unknown,ON,Unknown,Unknown,Unknown
Super Market,Zehrs,509,Store 509,Unknown,Unknown,ON,Unknown,Unknown,Unknown
Super Market,Real Canadian Superstore,512,Store 512,Unknown,Unknown,ON,Unknown,Unknown,Unknown
Super Market,Zehrs,514,Store 514,Unknown,Unknown,ON,Unknown,Unknown,Unknown
Super Market,Zehrs,515,Store 515,Unknown,Unknown,ON,Unknown,Unknown,Unknown
Super Market,Zehrs,519,Store 519,Unknown,Unknown,ON,Unknown,Unknown,Unknown
Super Market,Zehrs,520,Store 520,Unknown,Unknown,ON,Unknown,Unknown,Unknown
Super Market,Zehrs,521,Store 521,Unknown,Unknown,ON,Unknown,Unknown,Unknown
Super Market,Zehrs,522,Store 522,Unknown,Unknown,ON,Unknown,Unknown,Unknown
Super Market,Zehrs,523,Store 523,Unknown,Unknown,ON,Unknown,Unknown,Unknown
Super Market,Zehrs,524,Store 524,Unknown,Unknown,ON,Unknown,Unknown,Unknown
Super Market,Zehrs,525,Store 525,Unknown,Unknown,ON,Unknown,Unknown,Unknown
Super Market,Fortinos,526,Store 526,Unknown,Unknown,ON,Unknown,Unknown,Unknown
Super Market,Zehrs,528,Store 528,Unknown,Unknown,ON,Unknown,Unknown,Unknown
Super Market,Zehrs,529,Store 529,Unknown,Unknown,ON,Unknown,Unknown,Unknown
Super Market,Zehrs,530,Store 530,Unknown,Unknown,ON,Unknown,Unknown,Unknown
Super Market,Zehrs,531,Store 531,Unknown,Unknown,ON,Unknown,Unknown,Unknown
Super Market,Zehrs,532,Store 532,Unknown,Unknown,ON,Unknown,Unknown,Unknown
Super Market,Zehrs,533,Store 533,Unknown,Unknown,ON,Unknown,Unknown,Unknown
Super Market,Zehrs,535,Store 535,Unknown,Unknown,ON,Unknown,Unknown,Unknown
Super Market,Zehrs,536,Store 536,Unknown,Unknown,ON,Unknown,Unknown,Unknown
Super Market,Zehrs,537,Store 537,Unknown,Unknown,ON,Unknown,Unknown,Unknown
Super Market,Zehrs,538,Store 538,Unknown,Unknown,ON,Unknown,Unknown,Unknown
Super Market,Zehrs,539,Store 539,Unknown,Unknown,ON,Unknown,Unknown,Unknown
Super Market,Zehrs,540,Store 540,Unknown,Unknown,ON,Unknown,Unknown,Unknown
Super Market,Zehrs,543,Store 543,Unknown,Unknown,ON,Unknown,Unknown,Unknown
Super Market,Zehrs,545,Store 545,Unknown,Unknown,ON,Unknown,Unknown,Unknown
Super Market,Zehrs,550,Store 550,Unknown,Unknown,ON,Unknown,Unknown,Unknown
Super Market,Real Canadian Superstore,551,Store 551,Unknown,Unknown,ON,Unknown,Unknown,Unknown
Super Market,Zehrs,552,Store 552,Unknown,Unknown,ON,Unknown,Unknown,Unknown
Super Market,Zehrs,554,Store 554,Unknown,Unknown,ON,Unknown,Unknown,Unknown
Super Market,Zehrs,557,Store 557,Unknown,Unknown,ON,Unknown,Unknown,Unknown
Super Market,Zehrs,559,Store 559,Unknown,Unknown,ON,Unknown,Unknown,Unknown
Super Market,Zehrs,560,Store 560,Unknown,Unknown,ON,Unknown,Unknown,Unknown
Super Market,Real Canadian Superstore,562,Store 562,Unknown,Unknown,ON,Unknown,Unknown,Unknown
Super Market,Zehrs,563,Store 563,Unknown,Unknown,ON,Unknown,Unknown,Unknown
Super Market,Zehrs,565,Store 565,Unknown,Unknown,ON,Unknown,Unknown,Unknown
Super Market,Real Canadian Superstore,566,Store 566,Unknown,Unknown,ON,Unknown,Unknown,Unknown
Super Market,Real Canadian Superstore,567,Store 567,Unknown,Unknown,ON,Unknown,Unknown,Unknown
Super Market,Real Canadian Superstore,569,Store 569,Unknown,Unknown,ON,Unknown,Unknown,Unknown
Super Market,Zehrs,570,Store 570,Unknown,Unknown,ON,Unknown,Unknown,Unknown
Super Market,Zehrs,572,Store 572,Unknown,Unknown,ON,Unknown,Unknown,Unknown
Super Market,Zehrs,573,Store 573,Unknown,Unknown,ON,Unknown,Unknown,Unknown
Super Market,Zehrs,576,Store 576,Unknown,Unknown,ON,Unknown,Unknown,Unknown
Super Market,Real Canadian Superstore,577,Store 577,Unknown,Unknown,ON,Unknown,Unknown,Unknown
Super Market,Zehrs,579,Store 579,Unknown,Unknown,ON,Unknown,Unknown,Unknown
Super Market,Zehrs,580,Store 580,Unknown,Unknown,ON,Unknown,Unknown,Unknown
Super Market,Your Independent Grocer,600,Store 600,Unknown,Unknown,NS,Unknown,Unknown,Unknown
Super Market,Your Independent Grocer,620,Store 620,Unknown,Unknown,NB,Unknown,Unknown,Unknown
Super Market,Your Independent Grocer,626,Store 626,Unknown,Unknown,NB,Unknown,Unknown,Unknown
Super Market,Your Independent Grocer,634,Store 634,Unknown,Unknown,NS,Unknown,Unknown,Unknown
Super Market,Your Independent Grocer,636,Store 636,Unknown,Unknown,PE,Unknown,Unknown,Unknown
Super Market,Your Independent Grocer,648,Store 648,Unknown,Unknown,NB,Unknown,Unknown,Unknown
Super Market,Your Independent Grocer,651,Store 651,Unknown,Unknown,NB,Unknown,Unknown,Unknown
Super Market,Your Independent Grocer,658,Store 658,Unknown,Unknown,NS,Unknown,Unknown,Unknown
Super Market,Your Independent Grocer,663,Store 663,Unknown,Unknown,NB,Unknown,Unknown,Unknown
Super Market,Your Independent Grocer,685,Store 685,Unknown,Unknown,NS,Unknown,Unknown,Unknown
Hard Discount,nofrills,703,Store 703,Unknown,Unknown,ON,Unknown,Unknown,Unknown
Hard Discount,nofrills,704,Store 704,Unknown,Unknown,ON,Unknown,Unknown,Unknown
Hard Discount,nofrills,718,Store 718,Unknown,Unknown,ON,Unknown,Unknown,Unknown
Hard Discount,nofrills,723,Store 723,Unknown,Unknown,ON,Unknown,Unknown,Unknown
Hard Discount,nofrills,743,Store 743,Unknown,Unknown,ON,Unknown,Unknown,Unknown
Hard Discount,nofrills,753,Store 753,Unknown,Unknown,ON,Unknown,Unknown,Unknown
Hard Discount,nofrills,758,Store 758,Unknown,Unknown,ON,Unknown,Unknown,Unknown
Hard Discount,nofrills,763,Store 763,Unknown,Unknown,ON,Unknown,Unknown,Unknown
Hard Discount,nofrills,770,Store 770,Unknown,Unknown,ON,Unknown,Unknown,Unknown
Hard Discount,nofrills,793,Store 793,Unknown,Unknown,ON,Unknown,Unknown,Unknown
Super Market,Your Independent Grocer,806,Store 806,Unknown,Unknown,ON,Unknown,Unknown,Unknown
Super Market,Your Independent Grocer,810,Store 810,Unknown,Unknown,ON,Unknown,Unknown,Unknown
Super Market,Your Independent Grocer,812,Store 812,Unknown,Unknown,ON,Unknown,Unknown,Unknown
Super Market,Your Independent Grocer,817,Store 817,Unknown,Unknown,ON,Unknown,Unknown,Unknown
Super Market,Your Independent Grocer,827,Store 827,Unknown,Unknown,ON,Unknown,Unknown,Unknown
Super Market,Your Independent Grocer,831,Store 831,Unknown,Unknown,ON,Unknown,Unknown,Unknown
Super Market,valu-mart,832,Store 832,Unknown,Unknown,ON,Unknown,Unknown,Unknown
Super Market,Your Independent Grocer,835,Store 835,Unknown,Unknown,ON,Unknown,Unknown,Unknown
Super Market,Your Independent Grocer,839,Store 839,Unknown,Unknown,ON,Unknown,Unknown,Unknown
Super Market,valu-mart,859,Store 859,Unknown,Unknown,ON,Unknown,Unknown,Unknown
Super Market,Your Independent Grocer,866,Store 866,Unknown,Unknown,ON,Unknown,Unknown,Unknown
Super Market,Your Independent Grocer,878,Store 878,Unknown,Unknown,ON,Unknown,Unknown,Unknown
Super Market,Your Independent Grocer,895,Store 895,Unknown,Unknown,ON,Unknown,Unknown,Unknown
Super Market,Dominion,906,Store 906,Unknown,Unknown,NL,Unknown,Unknown,Unknown
Super Market,Dominion,913,Store 913,Unknown,Unknown,NL,Unknown,Unknown,Unknown
Super Market,Dominion,922,Store 922,Unknown,Unknown,NL,Unknown,Unknown,Unknown
Super Market,Dominion,923,Store 923,Unknown,Unknown,NL,Unknown,Unknown,Unknown
Super Market,Dominion,924,Store 924,Unknown,Unknown,NL,Unknown,Unknown,Unknown
Super Market,Dominion,925,Store 925,Unknown,Unknown,NL,Unknown,Unknown,Unknown
Super Market,Dominion,926,Store 926,Unknown,Unknown,NL,Unknown,Unknown,Unknown
Super Market,Dominion,927,Store 927,Unknown,Unknown,NL,Unknown,Unknown,Unknown
Super Market,Dominion,928,Store 928,Unknown,Unknown,NL,Unknown,Unknown,Unknown
Super Market,Dominion,934,Store 934,Unknown,Unknown,NL,Unknown,Unknown,Unknown
Super Market,Dominion,935,Store 935,Unknown,Unknown,NL,Unknown,Unknown,Unknown
Super Market,Loblaws,1000,Store 1000,Unknown,Unknown,ON,Unknown,Unknown,Unknown
Super Market,Loblaws,1001,Store 1001,Unknown,Unknown,ON,Unknown,Unknown,Unknown
Super Market,Loblaws,1003,Store 1003,Unknown,Unknown,ON,Unknown,Unknown,Unknown
Super Market,Loblaws,1004,Store 1004,Unknown,Unknown,ON,Unknown,Unknown,Unknown
Super Market,Loblaws,1007,Store 1007,Unknown,Unknown,ON,Unknown,Unknown,Unknown
Super Market,Real Canadian Superstore,1009,Store 1009,Unknown,Unknown,ON,Unknown,Unknown,Unknown
Super Market,Loblaws,1010,Store 1010,Unknown,Unknown,ON,Unknown,Unknown,Unknown
Super Market,Loblaws,1011,Store 1011,Unknown,Unknown,ON,Unknown,Unknown,Unknown
Super Market,Real Canadian Superstore,1012,Store 1012,Unknown,Unknown,ON,Unknown,Unknown,Unknown
Super Market,Loblaws,1014,Store 1014,Unknown,Unknown,ON,Unknown,Unknown,Unknown
Super Market,Loblaws,1016,Store 1016,Unknown,Unknown,ON,Unknown,Unknown,Unknown
Super Market,Real Canadian Superstore,1017,Store 1017,Unknown,Unknown,ON,Unknown,Unknown,Unknown
Super Market,Real Canadian Superstore,1018,Store 1018,Unknown,Unknown,ON,Unknown,Unknown,Unknown
Super Market,Loblaws,1019,Store 1019,Unknown,Unknown,ON,Unknown,Unknown,Unknown
Super Market,Loblaws,1020,Store 1020,Unknown,Unknown,ON,Unknown,Unknown,Unknown
Super Market,Loblaws,1021,Store 1021,Unknown,Unknown,ON,Unknown,Unknown,Unknown
Super Market,Loblaws,1022,Store 1022,Unknown,Unknown,ON,Unknown,Unknown,Unknown
Super Market,Loblaws,1023,Store 1023,Unknown,Unknown,ON,Unknown,Unknown,Unknown
Super Market,Real Canadian Superstore,1024,Store 1024,Unknown,Unknown,ON,Unknown,Unknown,Unknown
Super Market,Loblaws,1027,Store 1027,Unknown,Unknown,ON,Unknown,Unknown,Unknown
Super Market,Loblaws,1028,Store 1028,Unknown,Unknown,ON,Unknown,Unknown,Unknown
Super Market,Loblaws,1029,Store 1029,Unknown,Unknown,ON,Unknown,Unknown,Unknown
Super Market,Real Canadian Superstore,1030,Store 1030,Unknown,Unknown,ON,Unknown,Unknown,Unknown
Super Market,Loblaws,1032,Store 1032,Unknown,Unknown,ON,Unknown,Unknown,Unknown
Super Market,Real Canadian Superstore,1033,Store 1033,Unknown,Unknown,ON,Unknown,Unknown,Unknown
Super Market,Loblaws,1035,Store 1035,Unknown,Unknown,ON,Unknown,Unknown,Unknown
Super Market,Loblaws,1040,Store 1040,Unknown,Unknown,ON,Unknown,Unknown,Unknown
Super Market,Real Canadian Superstore,1043,Store 1043,Unknown,Unknown,ON,Unknown,Unknown,Unknown
Super Market,Loblaws,1050,Store 1050,Unknown,Unknown,ON,Unknown,Unknown,Unknown
Super Market,Loblaws,1051,Store 1051,Unknown,Unknown,ON,Unknown,Unknown,Unknown
Super Market,Real Canadian Superstore,1058,Store 1058,Unknown,Unknown,ON,Unknown,Unknown,Unknown
Super Market,Loblaws,1064,Store 1064,Unknown,Unknown,ON,Unknown,Unknown,Unknown
Super Market,Loblaws,1066,Store 1066,Unknown,Unknown,ON,Unknown,Unknown,Unknown
Super Market,Real Canadian Superstore,1071,Store 1071,Unknown,Unknown,ON,Unknown,Unknown,Unknown
Super Market,Real Canadian Superstore,1077,Store 1077,Unknown,Unknown,ON,Unknown,Unknown,Unknown
Super Market,Loblaws,1079,Store 1079,Unknown,Unknown,ON,Unknown,Unknown,Unknown
Super Market,Real Canadian Superstore,1080,Store 1080,Unknown,Unknown,ON,Unknown,Unknown,Unknown
Super Market,Loblaws,1082,Store 1082,Unknown,Unknown,ON,Unknown,Unknown,Unknown
Super Market,Loblaws,1083,Store 1083,Unknown,Unknown,ON,Unknown,Unknown,Unknown
Super Market,Loblaws,1090,Store 1090,Unknown,Unknown,ON,Unknown,Unknown,Unknown
Super Market,Real Canadian Superstore,1091,Store 1091,Unknown,Unknown,ON,Unknown,Unknown,Unknown
Super Market,Loblaws,1092,Store 1092,Unknown,Unknown,ON,Unknown,Unknown,Unknown
Super Market,Loblaws,1095,Store 1095,Unknown,Unknown,ON,Unknown,Unknown,Unknown
Super Market,Loblaws,1099,Store 1099,Unknown,Unknown,ON,Unknown,Unknown,Unknown
Super Market,Loblaws,1114,Store 1114,Unknown,Unknown,ON,Unknown,Unknown,Unknown
Super Market,Loblaws,1127,Store 1127,Unknown,Unknown,ON,Unknown,Unknown,Unknown
Super Market,Loblaws,1132,Store 1132,Unknown,Unknown,ON,Unknown,Unknown,Unknown
Super Market,Loblaws,1142,Store 1142,Unknown,Unknown,ON,Unknown,Unknown,Unknown
Super Market,Loblaws,1154,Store 1154,Unknown,Unknown,ON,Unknown,Unknown,Unknown
Super Market,Loblaws,1155,Store 1155,Unknown,Unknown,ON,Unknown,Unknown,Unknown
Super Market,Loblaws,1170,Store 1170,Unknown,Unknown,ON,Unknown,Unknown,Unknown
Super Market,Loblaws,1174,Store 1174,Unknown,Unknown,ON,Unknown,Unknown,Unknown
Super Market,Loblaws,1188,Store 1188,Unknown,Unknown,ON,Unknown,Unknown,Unknown
Super Market,Loblaws,1194,Store 1194,Unknown,Unknown,ON,Unknown,Unknown,Unknown
Joe Fresh,Joe Fresh,1210,Store 1210,Unknown,Unknown,ON,Unknown,Unknown,Unknown
Joe Fresh,Joe Fresh,1211,Store 1211,Unknown,Unknown,ON,Unknown,Unknown,Unknown
Super Market,Loblaws,1212,Store 1212,Unknown,Unknown,ON,Unknown,Unknown,Unknown
Joe Fresh,Joe Fresh,1217,Store 1217,Unknown,Unknown,ON,Unknown,Unknown,Unknown
Joe Fresh,Joe Fresh,1220,Store 1220,Unknown,Unknown,ON,Unknown,Unknown,Unknown
Joe Fresh,Joe Fresh,1221,Store 1221,Unknown,Unknown,ON,Unknown,Unknown,Unknown
Joe Fresh,Joe Fresh,1222,Store 1222,Unknown,Unknown,ON,Unknown,Unknown,Unknown
Hard Discount,nofrills,1302,Store 1302,Unknown,Unknown,ON,Unknown,Unknown,Unknown
Hard Discount,nofrills,1306,Store 1306,Unknown,Unknown,ON,Unknown,Unknown,Unknown
Hard Discount,nofrills,1312,Store 1312,Unknown,Unknown,ON,Unknown,Unknown,Unknown
Hard Discount,nofrills,1326,Store 1326,Unknown,Unknown,ON,Unknown,Unknown,Unknown
Hard Discount,nofrills,1335,Store 1335,Unknown,Unknown,ON,Unknown,Unknown,Unknown
Hard Discount,nofrills,1341,Store 1341,Unknown,Unknown,ON,Unknown,Unknown,Unknown
Hard Discount,nofrills,1346,Store 1346,Unknown,Unknown,ON,Unknown,Unknown,Unknown
Hard Discount,nofrills,1356,Store 1356,Unknown,Unknown,ON,Unknown,Unknown,Unknown
Hard Discount,nofrills,1376,Store 1376,Unknown,Unknown,ON,Unknown,Unknown,Unknown
Hard Discount,nofrills,1386,Store 1386,Unknown,Unknown,ON,Unknown,Unknown,Unknown
Hard Discount,nofrills,1394,Store 1394,Unknown,Unknown,ON,Unknown,Unknown,Unknown
Hard Discount,nofrills,1399,Store 1399,Unknown,Unknown,ON,Unknown,Unknown,Unknown
Super Market,Your Independent Grocer,1402,Store 1402,Unknown,Unknown,NS,Unknown,Unknown,Unknown
Super Market,Your Independent Grocer,1406,Store 1406,Unknown,Unknown,PE,Unknown,Unknown,Unknown
Super Market,Your Independent Grocer,1414,Store 1414,Unknown,Unknown,NS,Unknown,Unknown,Unknown
Super Market,Your Independent Grocer,1415,Store 1415,Unknown,Unknown,NB,Unknown,Unknown,Unknown
Super Market,Your Independent Grocer,1417,Store 1417,Unknown,Unknown,NL,Unknown,Unknown,Unknown
Super Market,Your Independent Grocer,1419,Store 1419,Unknown,Unknown,NB,Unknown,Unknown,Unknown
Super Market,Your Independent Grocer,1423,Store 1423,Unknown,Unknown,NL,Unknown,Unknown,Unknown
Super Market,Loblaws,1424,Store 1424,Unknown,Unknown,ON,Unknown,Unknown,Unknown
Super Market,Fortinos,1434,Store 1434,Unknown,Unknown,ON,Unknown,Unknown,Unknown
Super Market,Fortinos,1436,Store 1436,Unknown,Unknown,ON,Unknown,Unknown,Unknown
Joe Fresh,Joe Fresh,1443,Store 1443,Unknown,Unknown,ON,Unknown,Unknown,Unknown
Super Market,Fortinos,1495,Store 1495,Unknown,Unknown,ON,Unknown,Unknown,Unknown
Super Market,Real Canadian Superstore,1502,Store 1502,Unknown,Unknown,AB,Unknown,Unknown,Unknown
Super Market,Real Canadian Superstore,1503,Store 1503,Unknown,Unknown,MB,Unknown,Unknown,Unknown
Super Market,Real Canadian Superstore,1504,Store 1504,Unknown,Unknown,ON,Unknown,Unknown,Unknown
Super Market,Real Canadian Superstore,1505,Store 1505,Unknown,Unknown,MB,Unknown,Unknown,Unknown
Super Market,Real Canadian Superstore,1506,Store 1506,Unknown,Unknown,MB,Unknown,Unknown,Unknown
Super Market,Real Canadian Superstore,1508,Store 1508,Unknown,Unknown,MB,Unknown,Unknown,Unknown
Super Market,Real Canadian Superstore,1509,Store 1509,Unknown,Unknown,MB,Unknown,Unknown,Unknown
Super Market,Real Canadian Superstore,1510,Store 1510,Unknown,Unknown,MB,Unknown,Unknown,Unknown
Super Market,Real Canadian Superstore,1511,Store 1511,Unknown,Unknown,MB,Unknown,Unknown,Unknown
Super Market,Real Canadian Superstore,1512,Store 1512,Unknown,Unknown,MB,Unknown,Unknown,Unknown
Super Market,Real Canadian Superstore,1514,Store 1514,Unknown,Unknown,MB,Unknown,Unknown,Unknown
Super Market,Real Canadian Superstore,1515,Store 1515,Unknown,Unknown,MB,Unknown,Unknown,Unknown
Super Market,Real Canadian Superstore,1516,Store 1516,Unknown,Unknown,MB,Unknown,Unknown,Unknown
Super Market,Real Canadian Superstore,1517,Store 1517,Unknown,Unknown,BC,Unknown,Unknown,Unknown
Super Market,Real Canadian Superstore,1518,Store 1518,Unknown,Unknown,BC,Unknown,Unknown,Unknown
Super Market,Real Canadian Superstore,1519,Store 1519,Unknown,Unknown,BC,Unknown,Unknown,Unknown
Super Market,Real Canadian Superstore,1520,Store 1520,Unknown,Unknown,BC,Unknown,Unknown,Unknown
Super Market,Real Canadian Superstore,1521,Store 1521,Unknown,Unknown,BC,Unknown,Unknown,Unknown
Super Market,Real Canadian Superstore,1522,Store 1522,Unknown,Unknown,BC,Unknown,Unknown,Unknown
Super Market,Real Canadian Superstore,1523,Store 1523,Unknown,Unknown,BC,Unknown,Unknown,Unknown
Super Market,Real Canadian Superstore,1524,Store 1524,Unknown,Unknown,BC,Unknown,Unknown,Unknown
Super Market,Real Canadian Superstore,1525,Store 1525,Unknown,Unknown,BC,Unknown,Unknown,Unknown
Super Market,Real Canadian Superstore,1526,Store 1526,Unknown,Unknown,BC,Unknown,Unknown,Unknown
Super Market,Real Canadian Superstore,1527,Store 1527,Unknown,Unknown,BC,Unknown,Unknown,Unknown
Super Market,Real Canadian Superstore,1528,Store 1528,Unknown,Unknown,BC,Unknown,Unknown,Unknown
Super Market,Real Canadian Superstore,1530,Store 1530,Unknown,Unknown,YT,Unknown,Unknown,Unknown
Super Market,Real Canadian Superstore,1531,Store 1531,Unknown,Unknown,BC,Unknown,Unknown,Unknown
Super Market,Real Canadian Superstore,1532,Store 1532,Unknown,Unknown,BC,Unknown,Unknown,Unknown
Super Market,Real Canadian Superstore,1533,Store 1533,Unknown,Unknown,SK,Unknown,Unknown,Unknown
Super Market,Real Canadian Superstore,1535,Store 1535,Unknown,Unknown,SK,Unknown,Unknown,Unknown
Super Market,Real Canadian Superstore,1536,Store 1536,Unknown,Unknown,SK,Unknown,Unknown,Unknown
Super Market,Real Canadian Superstore,1537,Store 1537,Unknown,Unknown,AB,Unknown,Unknown,Unknown
Super Market,Real Canadian Superstore,1538,Store 1538,Unknown,Unknown,AB,Unknown,Unknown,Unknown
Super Market,Real Canadian Superstore,1539,Store 1539,Unknown,Unknown,AB,Unknown,Unknown,Unknown
Super Market,Real Canadian Superstore,1540,Store 1540,Unknown,Unknown,AB,Unknown,Unknown,Unknown
Super Market,Real Canadian Superstore,1541,Store 1541,Unknown,Unknown,AB,Unknown,Unknown,Unknown
Super Market,Real Canadian Superstore,1542,Store 1542,Unknown,Unknown,AB,Unknown,Unknown,Unknown
Super Market,Real Canadian Superstore,1543,Store 1543,Unknown,Unknown,AB,Unknown,Unknown,Unknown
Super Market,Real Canadian Superstore,1544,Store 1544,Unknown,Unknown,AB,Unknown,Unknown,Unknown
Super Market,Real Canadian Superstore,1545,Store 1545,Unknown,Unknown,AB,Unknown,Unknown,Unknown
Super Market,Real Canadian Superstore,1546,Store 1546,Unknown,Unknown,AB,Unknown,Unknown,Unknown
Super Market,Real Canadian Superstore,1547,Store 1547,Unknown,Unknown,AB,Unknown,Unknown,Unknown
Super Market,Real Canadian Superstore,1548,Store 1548,Unknown,Unknown,AB,Unknown,Unknown,Unknown
Super Market,Real Canadian Superstore,1549,Store 1549,Unknown,Unknown,AB,Unknown,Unknown,Unknown
Super Market,Real Canadian Superstore,1550,Store 1550,Unknown,Unknown,AB,Unknown,Unknown,Unknown
Super Market,Real Canadian Superstore,1551,Store 1551,Unknown,Unknown,BC,Unknown,Unknown,Unknown
Super Market,Real Canadian Superstore,1552,Store 1552,Unknown,Unknown,BC,Unknown,Unknown,Unknown
Super Market,Real Canadian Superstore,1553,Store 1553,Unknown,Unknown,BC,Unknown,Unknown,Unknown
Super Market,Real Canadian Superstore,1554,Store 1554,Unknown,Unknown,BC,Unknown,Unknown,Unknown
Super Market,Real Canadian Superstore,1555,Store 1555,Unknown,Unknown,BC,Unknown,Unknown,Unknown
Super Market,Real Canadian Superstore,1556,Store 1556,Unknown,Unknown,BC,Unknown,Unknown,Unknown
Super Market,Real Canadian Superstore,1557,Store 1557,Unknown,Unknown,BC,Unknown,Unknown,Unknown
Super Market,Real Canadian Superstore,1558,Store 1558,Unknown,Unknown,BC,Unknown,Unknown,Unknown
Super Market,Real Canadian Superstore,1559,Store 1559,Unknown,Unknown,BC,Unknown,Unknown,Unknown
Super Market,Real Canadian Superstore,1560,Store 1560,Unknown,Unknown,BC,Unknown,Unknown,Unknown
Super Market,Real Canadian Superstore,1561,Store 1561,Unknown,Unknown,BC,Unknown,Unknown,Unknown
Super Market,Real Canadian Superstore,1562,Store 1562,Unknown,Unknown,BC,Unknown,Unknown,Unknown
Super Market,Real Canadian Superstore,1563,Store 1563,Unknown,Unknown,BC,Unknown,Unknown,Unknown
Super Market,Real Canadian Superstore,1564,Store 1564,Unknown,Unknown,BC,Unknown,Unknown,Unknown
Super Market,Real Canadian Superstore,1565,Store 1565,Unknown,Unknown,AB,Unknown,Unknown,Unknown
Super Market,Real Canadian Superstore,1566,Store 1566,Unknown,Unknown,AB,Unknown,Unknown,Unknown
Super Market,Real Canadian Superstore,1567,Store 1567,Unknown,Unknown,AB,Unknown,Unknown,Unknown
Super Market,Real Canadian Superstore,1568,Store 1568,Unknown,Unknown,AB,Unknown,Unknown,Unknown
Super Market,Real Canadian Superstore,1569,Store 1569,Unknown,Unknown,AB,Unknown,Unknown,Unknown
Super Market,Real Canadian Superstore,1570,Store 1570,Unknown,Unknown,AB,Unknown,Unknown,Unknown
Super Market,Real Canadian Superstore,1571,Store 1571,Unknown,Unknown,AB,Unknown,Unknown,Unknown
Super Market,Real Canadian Superstore,1572,Store 1572,Unknown,Unknown,AB,Unknown,Unknown,Unknown
Super Market,Real Canadian Superstore,1573,Store 1573,Unknown,Unknown,AB,Unknown,Unknown,Unknown
Super Market,Real Canadian Superstore,1574,Store 1574,Unknown,Unknown,AB,Unknown,Unknown,Unknown
Super Market,Real Canadian Superstore,1575,Store 1575,Unknown,Unknown,AB,Unknown,Unknown,Unknown
Super Market,Real Canadian Superstore,1576,Store 1576,Unknown,Unknown,AB,Unknown,Unknown,Unknown
Super Market,Real Canadian Superstore,1577,Store 1577,Unknown,Unknown,AB,Unknown,Unknown,Unknown
Super Market,Real Canadian Superstore,1578,Store 1578,Unknown,Unknown,AB,Unknown,Unknown,Unknown
Super Market,Real Canadian Superstore,1579,Store 1579,Unknown,Unknown,AB,Unknown,Unknown,Unknown
Super Market,Real Canadian Superstore,1581,Store 1581,Unknown,Unknown,SK,Unknown,Unknown,Unknown
Super Market,Real Canadian Superstore,1582,Store 1582,Unknown,Unknown,SK,Unknown,Unknown,Unknown
Super Market,Real Canadian Superstore,1583,Store 1583,Unknown,Unknown,SK,Unknown,Unknown,Unknown
Super Market,Real Canadian Superstore,1584,Store 1584,Unknown,Unknown,SK,Unknown,Unknown,Unknown
Super Market,Real Canadian Superstore,1585,Store 1585,Unknown,Unknown,SK,Unknown,Unknown,Unknown
Super Market,Real Canadian Superstore,1586,Store 1586,Unknown,Unknown,AB,Unknown,Unknown,Unknown
Super Market,Real Canadian Superstore,1590,Store 1590,Unknown,Unknown,AB,Unknown,Unknown,Unknown
Emerging,Real Canadian Liquor Store,1601,Store 1601,Unknown,Unknown,AB,Unknown,Unknown,Unknown
Emerging,Real Canadian Liquor Store,1602,Store 1602,Unknown,Unknown,AB,Unknown,Unknown,Unknown
Emerging,Real Canadian Liquor Store,1603,Store 1603,Unknown,Unknown,AB,Unknown,Unknown,Unknown
Emerging,Real Canadian Liquor Store,1604,Store 1604,Unknown,Unknown,AB,Unknown,Unknown,Unknown
Emerging,Real Canadian Liquor Store,1605,Store 1605,Unknown,Unknown,AB,Unknown,Unknown,Unknown
Emerging,Real Canadian Liquor Store,1606,Store 1606,Unknown,Unknown,AB,Unknown,Unknown,Unknown
Emerging,Real Canadian Liquor Store,1612,Store 1612,Unknown,Unknown,AB,Unknown,Unknown,Unknown
Super Market,Your Independent Grocer,1618,Store 1618,Unknown,Unknown,ON,Unknown,Unknown,Unknown
Super Market,Your Independent Grocer,1619,Store 1619,Unknown,Unknown,ON,Unknown,Unknown,Unknown
Super Market,Your Independent Grocer,1621,Store 1621,Unknown,Unknown,ON,Unknown,Unknown,Unknown
Super Market,Your Independent Grocer,1622,Store 1622,Unknown,Unknown,NS,Unknown,Unknown,Unknown
Super Market,Your Independent Grocer,1623,Store 1623,Unknown,Unknown,NS,Unknown,Unknown,Unknown
Super Market,Your Independent Grocer,1624,Store 1624,Unknown,Unknown,ON,Unknown,Unknown,Unknown
Super Market,Your Independent Grocer,1627,Store 1627,Unknown,Unknown,ON,Unknown,Unknown,Unknown
Super Market,Your Independent Grocer,1634,Store 1634,Unknown,Unknown,NB,Unknown,Unknown,Unknown
Super Market,Your Independent Grocer,1636,Store 1636,Unknown,Unknown,PE,Unknown,Unknown,Unknown
Emerging,Real Canadian Liquor Store,1639,Store 1639,Unknown,Unknown,AB,Unknown,Unknown,Unknown
Emerging,Real Canadian Liquor Store,1640,Store 1640,Unknown,Unknown,AB,Unknown,Unknown,Unknown
Emerging,Real Canadian Liquor Store,1641,Store 1641,Unknown,Unknown,AB,Unknown,Unknown,Unknown
Emerging,Real Canadian Liquor Store,1642,Store 1642,Unknown,Unknown,AB,Unknown,Unknown,Unknown
Emerging,Real Canadian Liquor Store,1643,Store 1643,Unknown,Unknown,AB,Unknown,Unknown,Unknown
Emerging,Real Canadian Liquor Store,1644,Store 1644,Unknown,Unknown,AB,Unknown,Unknown,Unknown
Emerging,Real Canadian Liquor Store,1645,Store 1645,Unknown,Unknown,AB,Unknown,Unknown,Unknown
Emerging,Real Canadian Liquor Store,1646,Store 1646,Unknown,Unknown,AB,Unknown,Unknown,Unknown
Emerging,Real Canadian Liquor Store,1647,Store 1647,Unknown,Unknown,AB,Unknown,Unknown,Unknown
Emerging,Real Canadian Liquor Store,1648,Store 1648,Unknown,Unknown,AB,Unknown,Unknown,Unknown
Emerging,Real Canadian Liquor Store,1649,Store 1649,Unknown,Unknown,AB,Unknown,Unknown,Unknown
Emerging,Real Canadian Liquor Store,1650,Store 1650,Unknown,Unknown,AB,Unknown,Unknown,Unknown
Emerging,Your Independent Liquor Store,1651,Store 1651,Unknown,Unknown,AB,Unknown,Unknown,Unknown
Super Market,Your Independent Grocer,1659,Store 1659,Unknown,Unknown,AB,Unknown,Unknown,Unknown
Super Market,Your Independent Grocer,1664,Store 1664,Unknown,Unknown,ON,Unknown,Unknown,Unknown
Emerging,Real Canadian Liquor Store,1665,Store 1665,Unknown,Unknown,AB,Unknown,Unknown,Unknown
Emerging,Real Canadian Liquor Store,1666,Store 1666,Unknown,Unknown,AB,Unknown,Unknown,Unknown
Emerging,Real Canadian Liquor Store,1667,Store 1667,Unknown,Unknown,AB,Unknown,Unknown,Unknown
Emerging,Real Canadian Liquor Store,1668,Store 1668,Unknown,Unknown,AB,Unknown,Unknown,Unknown
Emerging,Real Canadian Liquor Store,1669,Store 1669,Unknown,Unknown,AB,Unknown,Unknown,Unknown
Emerging,Real Canadian Liquor Store,1670,Store 1670,Unknown,Unknown,AB,Unknown,Unknown,Unknown
Emerging,Real Canadian Liquor Store,1671,Store 1671,Unknown,Unknown,AB,Unknown,Unknown,Unknown
Emerging,Real Canadian Liquor Store,1672,Store 1672,Unknown,Unknown,AB,Unknown,Unknown,Unknown
Emerging,Real Canadian Liquor Store,1673,Store 1673,Unknown,Unknown,AB,Unknown,Unknown,Unknown
Emerging,Real Canadian Liquor Store,1674,Store 1674,Unknown,Unknown,AB,Unknown,Unknown,Unknown
Emerging,Real Canadian Liquor Store,1675,Store 1675,Unknown,Unknown,AB,Unknown,Unknown,Unknown
Emerging,Real Canadian Liquor Store,1676,Store 1676,Unknown,Unknown,AB,Unknown,Unknown,Unknown
Emerging,Real Canadian Liquor Store,1677,Store 1677,Unknown,Unknown,AB,Unknown,Unknown,Unknown
Emerging,Real Canadian Liquor Store,1678,Store 1678,Unknown,Unknown,AB,Unknown,Unknown,Unknown
Emerging,Real Canadian Liquor Store,1679,Store 1679,Unknown,Unknown,AB,Unknown,Unknown,Unknown
Super Market,Your Independent Grocer,1683,Store 1683,Unknown,Unknown,NB,Unknown,Unknown,Unknown
Super Market,Your Independent Grocer,1685,Store 1685,Unknown,Unknown,NB,Unknown,Unknown,Unknown
Emerging,Real Canadian Liquor Store,1686,Store 1686,Unknown,Unknown,AB,Unknown,Unknown,Unknown
Emerging,Real Canadian Liquor Store,1687,Store 1687,Unknown,Unknown,AB,Unknown,Unknown,Unknown
Super Market,Your Independent Grocer,1688,Store 1688,Unknown,Unknown,BC,Unknown,Unknown,Unknown
Emerging,Real Canadian Liquor Store,1691,Store 1691,Unknown,Unknown,AB,Unknown,Unknown,Unknown
Emerging,Your Independent Liquor Store,1694,Store 1694,Unknown,Unknown,AB,Unknown,Unknown,Unknown
Emerging,nofrills Liquorstore,1695,Store 1695,Unknown,Unknown,AB,Unknown,Unknown,Unknown
Super Market,Your Independent Grocer,1697,Store 1697,Unknown,Unknown,BC,Unknown,Unknown,Unknown
Super Market,Your Independent Grocer,1734,Store 1734,Unknown,Unknown,BC,Unknown,Unknown,Unknown
Super Market,Your Independent Grocer,1789,Store 1789,Unknown,Unknown,BC,Unknown,Unknown,Unknown
Super Market,Your Independent Grocer,1792,Store 1792,Unknown,Unknown,BC,Unknown,Unknown,Unknown
Super Market,Your Independent Grocer,1798,Store 1798,Unknown,Unknown,AB,Unknown,Unknown,Unknown
Super Market,Your Independent Grocer,1799,Store 1799,Unknown,Unknown,AB,Unknown,Unknown,Unknown
Super Market,Your Independent Grocer,1806,Store 1806,Unknown,Unknown,YT,Unknown,Unknown,Unknown
Super Market,Your Independent Grocer,1813,Store 1813,Unknown,Unknown,AB,Unknown,Unknown,Unknown
Super Market,Your Independent Grocer,1816,Store 1816,Unknown,Unknown,BC,Unknown,Unknown,Unknown
Super Market,Your Independent Grocer,1824,Store 1824,Unknown,Unknown,SK,Unknown,Unknown,Unknown
Super Market,Your Independent Grocer,1830,Store 1830,Unknown,Unknown,SK,Unknown,Unknown,Unknown
Super Market,Your Independent Grocer,1832,Store 1832,Unknown,Unknown,BC,Unknown,Unknown,Unknown
Super Market,Your Independent Grocer,1862,Store 1862,Unknown,Unknown,SK,Unknown,Unknown,Unknown
Super Market,Your Independent Grocer,1870,Store 1870,Unknown,Unknown,AB,Unknown,Unknown,Unknown
Super Market,Your Independent Grocer,1877,Store 1877,Unknown,Unknown,BC,Unknown,Unknown,Unknown
Super Market,Your Independent Grocer,1887,Store 1887,Unknown,Unknown,BC,Unknown,Unknown,Unknown
Super Market,Your Independent Grocer,1889,Store 1889,Unknown,Unknown,AB,Unknown,Unknown,Unknown
Super Market,Your Independent Grocer,1891,Store 1891,Unknown,Unknown,AB,Unknown,Unknown,Unknown
Super Market,Your Independent Grocer,1892,Store 1892,Unknown,Unknown,AB,Unknown,Unknown,Unknown
Super Market,Your Independent Grocer,1893,Store 1893,Unknown,Unknown,AB,Unknown,Unknown,Unknown
Super Market,Your Independent Grocer,1948,Store 1948,Unknown,Unknown,ON,Unknown,Unknown,Unknown
Super Market,Your Independent Grocer,2140,Store 2140,Unknown,Unknown,ON,Unknown,Unknown,Unknown
Super Market,Your Independent Grocer,2162,Store 2162,Unknown,Unknown,ON,Unknown,Unknown,Unknown
Super Market,Fortinos,2265,Store 2265,Unknown,Unknown,ON,Unknown,Unknown,Unknown
Super Market,Fortinos,2268,Store 2268,Unknown,Unknown,ON,Unknown,Unknown,Unknown
Super Market,Atlantic Superstore,2552,Store 2552,Unknown,Unknown,NS,Unknown,Unknown,Unknown
Super Market,Real Canadian Superstore,2555,Store 2555,Unknown,Unknown,AB,Unknown,Unknown,Unknown
Super Market,Your Independent Grocer,2601,Store 2601,Unknown,Unknown,ON,Unknown,Unknown,Unknown
Super Market,valu-mart,2632,Store 2632,Unknown,Unknown,ON,Unknown,Unknown,Unknown
Super Market,valu-mart,2634,Store 2634,Unknown,Unknown,ON,Unknown,Unknown,Unknown
Super Market,valu-mart,2635,Store 2635,Unknown,Unknown,ON,Unknown,Unknown,Unknown
Super Market,Your Independent Grocer,2639,Store 2639,Unknown,Unknown,ON,Unknown,Unknown,Unknown
Super Market,Your Independent Grocer,2655,Store 2655,Unknown,Unknown,ON,Unknown,Unknown,Unknown
Super Market,valu-mart,2658,Store 2658,Unknown,Unknown,ON,Unknown,Unknown,Unknown
Super Market,valu-mart,2660,Store 2660,Unknown,Unknown,ON ,Unknown,Unknown,Unknown
Super Market,Your Independent Grocer,2670,Store 2670,Unknown,Unknown,ON,Unknown,Unknown,Unknown
Super Market,Your Independent Grocer,2671,Store 2671,Unknown,Unknown,ON,Unknown,Unknown,Unknown
Super Market,valu-mart,2673,Store 2673,Unknown,Unknown,ON,Unknown,Unknown,Unknown
Super Market,Your Independent Grocer,2682,Store 2682,Unknown,Unknown,ON,Unknown,Unknown,Unknown
Super Market,Your Independent Grocer,2683,Store 2683,Unknown,Unknown,ON,Unknown,Unknown,Unknown
Super Market,Your Independent Grocer,2691,Store 2691,Unknown,Unknown,ON,Unknown,Unknown,Unknown
Super Market,Your Independent Grocer,2692,Store 2692,Unknown,Unknown,ON ,Unknown,Unknown,Unknown
Super Market,valu-mart,2697,Store 2697,Unknown,Unknown,ON,Unknown,Unknown,Unknown
Hard Discount,nofrills,2706,Store 2706,Unknown,Unknown,NS,Unknown,Unknown,Unknown
Hard Discount,nofrills,2707,Store 2707,Unknown,Unknown,NL,Unknown,Unknown,Unknown
Hard Discount,nofrills,2712,Store 2712,Unknown,Unknown,NS,Unknown,Unknown,Unknown
Hard Discount,nofrills,2713,Store 2713,Unknown,Unknown,NL,Unknown,Unknown,Unknown
Hard Discount,nofrills,2714,Store 2714,Unknown,Unknown,NB,Unknown,Unknown,Unknown
Super Market,Your Independent Grocer,2719,Store 2719,Unknown,Unknown,ON,Unknown,Unknown,Unknown
Super Market,Your Independent Grocer,2722,Store 2722,Unknown,Unknown,AB,Unknown,Unknown,Unknown
Super Market,Real Canadian Superstore,2800,Store 2800,Unknown,Unknown,ON,Unknown,Unknown,Unknown
Super Market,Real Canadian Superstore,2803,Store 2803,Unknown,Unknown,ON,Unknown,Unknown,Unknown
Super Market,Real Canadian Superstore,2806,Store 2806,Unknown,Unknown,ON,Unknown,Unknown,Unknown
Super Market,Real Canadian Superstore,2809,Store 2809,Unknown,Unknown,ON,Unknown,Unknown,Unknown
Super Market,Real Canadian Superstore,2810,Store 2810,Unknown,Unknown,ON,Unknown,Unknown,Unknown
Super Market,Real Canadian Superstore,2811,Store 2811,Unknown,Unknown,ON,Unknown,Unknown,Unknown
Super Market,Real Canadian Superstore,2812,Store 2812,Unknown,Unknown,ON,Unknown,Unknown,Unknown
Super Market,Real Canadian Superstore,2813,Store 2813,Unknown,Unknown,ON,Unknown,Unknown,Unknown
Super Market,Real Canadian Superstore,2818,Store 2818,Unknown,Unknown,ON,Unknown,Unknown,Unknown
Super Market,Real Canadian Superstore,2822,Store 2822,Unknown,Unknown,ON,Unknown,Unknown,Unknown
Super Market,Real Canadian Superstore,2823,Store 2823,Unknown,Unknown,ON,Unknown,Unknown,Unknown
Super Market,Real Canadian Superstore,2826,Store 2826,Unknown,Unknown,ON,Unknown,Unknown,Unknown
Super Market,Real Canadian Superstore,2827,Store 2827,Unknown,Unknown,ON,Unknown,Unknown,Unknown
Super Market,Real Canadian Superstore,2831,Store 2831,Unknown,Unknown,ON,Unknown,Unknown,Unknown
Super Market,Real Canadian Superstore,2841,Store 2841,Unknown,Unknown,ON,Unknown,Unknown,Unknown
Super Market,Real Canadian Superstore,2842,Store 2842,Unknown,Unknown,ON,Unknown,Unknown,Unknown
Hard Discount,nofrills,3041,Store 3041,Unknown,Unknown,AB,Unknown,Unknown,Unknown
Hard Discount,nofrills,3049,Store 3049,Unknown,Unknown,ON,Unknown,Unknown,Unknown
Hard Discount,nofrills,3112,Store 3112,Unknown,Unknown,ON,Unknown,Unknown,Unknown
Hard Discount,nofrills,3114,Store 3114,Unknown,Unknown,ON,Unknown,Unknown,Unknown
Hard Discount,nofrills,3117,Store 3117,Unknown,Unknown,ON,Unknown,Unknown,Unknown
Hard Discount,nofrills,3122,Store 3122,Unknown,Unknown,ON,Unknown,Unknown,Unknown
Hard Discount,nofrills,3131,Store 3131,Unknown,Unknown,ON,Unknown,Unknown,Unknown
Hard Discount,nofrills,3133,Store 3133,Unknown,Unknown,ON,Unknown,Unknown,Unknown
Hard Discount,nofrills,3134,Store 3134,Unknown,Unknown,ON,Unknown,Unknown,Unknown
Hard Discount,nofrills,3135,Store 3135,Unknown,Unknown,ON,Unknown,Unknown,Unknown
Hard Discount,nofrills,3138,Store 3138,Unknown,Unknown,ON,Unknown,Unknown,Unknown
Hard Discount,nofrills,3139,Store 3139,Unknown,Unknown,ON,Unknown,Unknown,Unknown
Hard Discount,nofrills,3140,Store 3140,Unknown,Unknown,ON,Unknown,Unknown,Unknown
Hard Discount,nofrills,3142,Store 3142,Unknown,Unknown,ON,Unknown,Unknown,Unknown
Hard Discount,nofrills,3143,Store 3143,Unknown,Unknown,ON,Unknown,Unknown,Unknown
Hard Discount,nofrills,3145,Store 3145,Unknown,Unknown,ON,Unknown,Unknown,Unknown
Hard Discount,nofrills,3150,Store 3150,Unknown,Unknown,ON,Unknown,Unknown,Unknown
Hard Discount,nofrills,3151,Store 3151,Unknown,Unknown,ON,Unknown,Unknown,Unknown
Hard Discount,nofrills,3152,Store 3152,Unknown,Unknown,ON,Unknown,Unknown,Unknown
Hard Discount,nofrills,3153,Store 3153,Unknown,Unknown,SK,Unknown,Unknown,Unknown
Hard Discount,nofrills,3155,Store 3155,Unknown,Unknown,AB,Unknown,Unknown,Unknown
Hard Discount,nofrills,3240,Store 3240,Unknown,Unknown,BC,Unknown,Unknown,Unknown
Hard Discount,nofrills,3350,Store 3350,Unknown,Unknown,NS,Unknown,Unknown,Unknown
Hard Discount,nofrills,3351,Store 3351,Unknown,Unknown,ON,Unknown,Unknown,Unknown
Hard Discount,nofrills,3352,Store 3352,Unknown,Unknown,AB,Unknown,Unknown,Unknown
Hard Discount,nofrills,3354,Store 3354,Unknown,Unknown,BC,Unknown,Unknown,Unknown
Hard Discount,nofrills,3355,Store 3355,Unknown,Unknown,NL,Unknown,Unknown,Unknown
Hard Discount,nofrills,3402,Store 3402,Unknown,Unknown,BC,Unknown,Unknown,Unknown
Hard Discount,nofrills,3403,Store 3403,Unknown,Unknown,BC,Unknown,Unknown,Unknown
Hard Discount,nofrills,3408,Store 3408,Unknown,Unknown,AB,Unknown,Unknown,Unknown
Hard Discount,nofrills,3410,Store 3410,Unknown,Unknown,BC,Unknown,Unknown,Unknown
Hard Discount,nofrills,3413,Store 3413,Unknown,Unknown,SK,Unknown,Unknown,Unknown
Hard Discount,nofrills,3414,Store 3414,Unknown,Unknown,BC,Unknown,Unknown,Unknown
Hard Discount,nofrills,3415,Store 3415,Unknown,Unknown,AB,Unknown,Unknown,Unknown
Hard Discount,nofrills,3417,Store 3417,Unknown,Unknown,BC,Unknown,Unknown,Unknown
Hard Discount,nofrills,3419,Store 3419,Unknown,Unknown,BC,Unknown,Unknown,Unknown
Hard Discount,nofrills,3420,Store 3420,Unknown,Unknown,AB,Unknown,Unknown,Unknown
Hard Discount,nofrills,3422,Store 3422,Unknown,Unknown,AB,Unknown,Unknown,Unknown
Hard Discount,nofrills,3430,Store 3430,Unknown,Unknown,BC,Unknown,Unknown,Unknown
Hard Discount,nofrills,3433,Store 3433,Unknown,Unknown,BC,Unknown,Unknown,Unknown
Hard Discount,nofrills,3437,Store 3437,Unknown,Unknown,SK,Unknown,Unknown,Unknown
Hard Discount,nofrills,3438,Store 3438,Unknown,Unknown,BC,Unknown,Unknown,Unknown
Hard Discount,nofrills,3439,Store 3439,Unknown,Unknown,BC,Unknown,Unknown,Unknown
Hard Discount,nofrills,3441,Store 3441,Unknown,Unknown,AB,Unknown,Unknown,Unknown
Hard Discount,nofrills,3442,Store 3442,Unknown,Unknown,MB,Unknown,Unknown,Unknown
Hard Discount,nofrills,3445,Store 3445,Unknown,Unknown,AB,Unknown,Unknown,Unknown
Hard Discount,nofrills,3448,Store 3448,Unknown,Unknown,AB,Unknown,Unknown,Unknown
Hard Discount,nofrills,3449,Store 3449,Unknown,Unknown,MB,Unknown,Unknown,Unknown
Hard Discount,nofrills,3450,Store 3450,Unknown,Unknown,ON,Unknown,Unknown,Unknown
Hard Discount,nofrills,3456,Store 3456,Unknown,Unknown,ON,Unknown,Unknown,Unknown
Hard Discount,nofrills,3457,Store 3457,Unknown,Unknown,ON,Unknown,Unknown,Unknown
Hard Discount,nofrills,3463,Store 3463,Unknown,Unknown,ON,Unknown,Unknown,Unknown
Hard Discount,nofrills,3465,Store 3465,Unknown,Unknown,ON,Unknown,Unknown,Unknown
Hard Discount,nofrills,3467,Store 3467,Unknown,Unknown,ON,Unknown,Unknown,Unknown
Hard Discount,nofrills,3472,Store 3472,Unknown,Unknown,ON,Unknown,Unknown,Unknown
Hard Discount,nofrills,3473,Store 3473,Unknown,Unknown,ON,Unknown,Unknown,Unknown
Hard Discount,nofrills,3474,Store 3474,Unknown,Unknown,ON,Unknown,Unknown,Unknown
Hard Discount,nofrills,3476,Store 3476,Unknown,Unknown,ON,Unknown,Unknown,Unknown
Hard Discount,nofrills,3478,Store 3478,Unknown,Unknown,ON,Unknown,Unknown,Unknown
Hard Discount,nofrills,3480,Store 3480,Unknown,Unknown,ON,Unknown,Unknown,Unknown
Hard Discount,nofrills,3490,Store 3490,Unknown,Unknown,ON,Unknown,Unknown,Unknown
Hard Discount,nofrills,3494,Store 3494,Unknown,Unknown,ON,Unknown,Unknown,Unknown
Hard Discount,nofrills,3603,Store 3603,Unknown,Unknown,AB,Unknown,Unknown,Unknown
Hard Discount,nofrills,3604,Store 3604,Unknown,Unknown,BC,Unknown,Unknown,Unknown
Hard Discount,nofrills,3608,Store 3608,Unknown,Unknown,SK,Unknown,Unknown,Unknown
Hard Discount,nofrills,3610,Store 3610,Unknown,Unknown,MB,Unknown,Unknown,Unknown
Hard Discount,nofrills,3615,Store 3615,Unknown,Unknown,ON,Unknown,Unknown,Unknown
Hard Discount,nofrills,3616,Store 3616,Unknown,Unknown,ON,Unknown,Unknown,Unknown
Hard Discount,nofrills,3619,Store 3619,Unknown,Unknown,ON,Unknown,Unknown,Unknown
Hard Discount,nofrills,3621,Store 3621,Unknown,Unknown,ON,Unknown,Unknown,Unknown
Hard Discount,nofrills,3625,Store 3625,Unknown,Unknown,ON,Unknown,Unknown,Unknown
Hard Discount,nofrills,3628,Store 3628,Unknown,Unknown,AB,Unknown,Unknown,Unknown
Hard Discount,nofrills,3631,Store 3631,Unknown,Unknown,ON,Unknown,Unknown,Unknown
Hard Discount,nofrills,3633,Store 3633,Unknown,Unknown,AB,Unknown,Unknown,Unknown
Hard Discount,nofrills,3634,Store 3634,Unknown,Unknown,ON,Unknown,Unknown,Unknown
Hard Discount,nofrills,3636,Store 3636,Unknown,Unknown,ON,Unknown,Unknown,Unknown
Hard Discount,nofrills,3639,Store 3639,Unknown,Unknown,ON,Unknown,Unknown,Unknown
Hard Discount,nofrills,3640,Store 3640,Unknown,Unknown,ON,Unknown,Unknown,Unknown
Hard Discount,nofrills,3641,Store 3641,Unknown,Unknown,BC,Unknown,Unknown,Unknown
Hard Discount,nofrills,3643,Store 3643,Unknown,Unknown,ON,Unknown,Unknown,Unknown
Hard Discount,nofrills,3646,Store 3646,Unknown,Unknown,ON,Unknown,Unknown,Unknown
Hard Discount,nofrills,3647,Store 3647,Unknown,Unknown,MB,Unknown,Unknown,Unknown
Hard Discount,nofrills,3648,Store 3648,Unknown,Unknown,BC,Unknown,Unknown,Unknown
Hard Discount,nofrills,3649,Store 3649,Unknown,Unknown,AB,Unknown,Unknown,Unknown
Hard Discount,nofrills,3650,Store 3650,Unknown,Unknown,AB,Unknown,Unknown,Unknown
Hard Discount,nofrills,3654,Store 3654,Unknown,Unknown,ON,Unknown,Unknown,Unknown
Hard Discount,nofrills,3655,Store 3655,Unknown,Unknown,AB,Unknown,Unknown,Unknown
Hard Discount,nofrills,3659,Store 3659,Unknown,Unknown,ON,Unknown,Unknown,Unknown
Hard Discount,nofrills,3660,Store 3660,Unknown,Unknown,ON,Unknown,Unknown,Unknown
Hard Discount,nofrills,3661,Store 3661,Unknown,Unknown,ON,Unknown,Unknown,Unknown
Hard Discount,nofrills,3663,Store 3663,Unknown,Unknown,ON,Unknown,Unknown,Unknown
Hard Discount,nofrills,3664,Store 3664,Unknown,Unknown,ON,Unknown,Unknown,Unknown
Hard Discount,nofrills,3666,Store 3666,Unknown,Unknown,ON,Unknown,Unknown,Unknown
Hard Discount,nofrills,3667,Store 3667,Unknown,Unknown,ON,Unknown,Unknown,Unknown
Hard Discount,nofrills,3668,Store 3668,Unknown,Unknown,ON,Unknown,Unknown,Unknown
Hard Discount,nofrills,3669,Store 3669,Unknown,Unknown,AB,Unknown,Unknown,Unknown
Hard Discount,nofrills,3670,Store 3670,Unknown,Unknown,ON,Unknown,Unknown,Unknown
Hard Discount,nofrills,3671,Store 3671,Unknown,Unknown,BC,Unknown,Unknown,Unknown
Hard Discount,nofrills,3672,Store 3672,Unknown,Unknown,ON,Unknown,Unknown,Unknown
Hard Discount,nofrills,3673,Store 3673,Unknown,Unknown,ON,Unknown,Unknown,Unknown
Hard Discount,nofrills,3675,Store 3675,Unknown,Unknown,ON,Unknown,Unknown,Unknown
Hard Discount,nofrills,3677,Store 3677,Unknown,Unknown,ON,Unknown,Unknown,Unknown
Hard Discount,nofrills,3679,Store 3679,Unknown,Unknown,ON,Unknown,Unknown,Unknown
Hard Discount,nofrills,3680,Store 3680,Unknown,Unknown,ON,Unknown,Unknown,Unknown
Hard Discount,nofrills,3683,Store 3683,Unknown,Unknown,AB,Unknown,Unknown,Unknown
Hard Discount,nofrills,3684,Store 3684,Unknown,Unknown,ON,Unknown,Unknown,Unknown
Hard Discount,nofrills,3685,Store 3685,Unknown,Unknown,AB,Unknown,Unknown,Unknown
Hard Discount,nofrills,3686,Store 3686,Unknown,Unknown,ON,Unknown,Unknown,Unknown
Hard Discount,nofrills,3688,Store 3688,Unknown,Unknown,ON,Unknown,Unknown,Unknown
Hard Discount,nofrills,3690,Store 3690,Unknown,Unknown,ON,Unknown,Unknown,Unknown
Hard Discount,nofrills,3691,Store 3691,Unknown,Unknown,AB,Unknown,Unknown,Unknown
Hard Discount,nofrills,3692,Store 3692,Unknown,Unknown,ON,Unknown,Unknown,Unknown
Hard Discount,nofrills,3695,Store 3695,Unknown,Unknown,ON,Unknown,Unknown,Unknown
Hard Discount,nofrills,3697,Store 3697,Unknown,Unknown,ON,Unknown,Unknown,Unknown
Hard Discount,nofrills,3698,Store 3698,Unknown,Unknown,ON,Unknown,Unknown,Unknown
Hard Discount,nofrills,3715,Store 3715,Unknown,Unknown,ON,Unknown,Unknown,Unknown
Hard Discount,nofrills,3717,Store 3717,Unknown,Unknown,ON,Unknown,Unknown,Unknown
Super Market,Your Independent Grocer,3719,Store 3719,Unknown,Unknown,ON,Unknown,Unknown,Unknown
Super Market,Your Independent Grocer,3721,Store 3721,Unknown,Unknown,ON,Unknown,Unknown,Unknown
Super Market,Your Independent Grocer,3722,Store 3722,Unknown,Unknown,ON,Unknown,Unknown,Unknown
Super Market,Your Independent Grocer,3723,Store 3723,Unknown,Unknown,ON,Unknown,Unknown,Unknown
Super Market,Wholesale Club,3724,Store 3724,Unknown,Unknown,ON,Unknown,Unknown,Unknown
Super Market,Your Independent Grocer,3726,Store 3726,Unknown,Unknown,ON,Unknown,Unknown,Unknown
Hard Discount,nofrills,3728,Store 3728,Unknown,Unknown,ON,Unknown,Unknown,Unknown
Super Market,Real Canadian Superstore,3730,Store 3730,Unknown,Unknown,AB,Unknown,Unknown,Unknown
Hard Discount,nofrills,3732,Store 3732,Unknown,Unknown,SK,Unknown,Unknown,Unknown
Hard Discount,nofrills,3733,Store 3733,Unknown,Unknown,MB,Unknown,Unknown,Unknown
Hard Discount,nofrills,3740,Store 3740,Unknown,Unknown,ON,Unknown,Unknown,Unknown
Hard Discount,nofrills,3770,Store 3770,Unknown,Unknown,ON,Unknown,Unknown,Unknown
Hard Discount,nofrills,3771,Store 3771,Unknown,Unknown,ON,Unknown,Unknown,Unknown
Hard Discount,nofrills,3786,Store 3786,Unknown,Unknown,ON,Unknown,Unknown,Unknown
Hard Discount,nofrills,3787,Store 3787,Unknown,Unknown,ON,Unknown,Unknown,Unknown
Hard Discount,nofrills,3789,Store 3789,Unknown,Unknown,ON,Unknown,Unknown,Unknown
Hard Discount,nofrills,3801,Store 3801,Unknown,Unknown,PEI,Unknown,Unknown,Unknown
Super Market,Your Independent Grocer,3803,Store 3803,Unknown,Unknown,ON,Unknown,Unknown,Unknown
Super Market,Your Independent Grocer,3804,Store 3804,Unknown,Unknown,ON,Unknown,Unknown,Unknown
Super Market,Your Independent Grocer,3806,Store 3806,Unknown,Unknown,ON,Unknown,Unknown,Unknown
Hard Discount,nofrills,3807,Store 3807,Unknown,Unknown,BC,Unknown,Unknown,Unknown
Hard Discount,nofrills,3811,Store 3811,Unknown,Unknown,AB,Unknown,Unknown,Unknown
Hard Discount,nofrills,3814,Store 3814,Unknown,Unknown,NB,Unknown,Unknown,Unknown
Super Market,Your Independent Grocer,3815,Store 3815,Unknown,Unknown,ON,Unknown,Unknown,Unknown
Super Market,Your Independent Grocer,3818,Store 3818,Unknown,Unknown,ON,Unknown,Unknown,Unknown
Hard Discount,nofrills,3907,Store 3907,Unknown,Unknown,ON,Unknown,Unknown,Unknown
Hard Discount,nofrills,3915,Store 3915,Unknown,Unknown,ON,Unknown,Unknown,Unknown
Hard Discount,nofrills,3916,Store 3916,Unknown,Unknown,ON,Unknown,Unknown,Unknown
Hard Discount,nofrills,3924,Store 3924,Unknown,Unknown,ON,Unknown,Unknown,Unknown
Hard Discount,nofrills,3925,Store 3925,Unknown,Unknown,ON,Unknown,Unknown,Unknown
Hard Discount,nofrills,3931,Store 3931,Unknown,Unknown,ON,Unknown,Unknown,Unknown
Hard Discount,nofrills,3933,Store 3933,Unknown,Unknown,ON,Unknown,Unknown,Unknown
Hard Discount,nofrills,3942,Store 3942,Unknown,Unknown,AB,Unknown,Unknown,Unknown
Hard Discount,nofrills,3944,Store 3944,Unknown,Unknown,AB,Unknown,Unknown,Unknown
Hard Discount,nofrills,3946,Store 3946,Unknown,Unknown,AB,Unknown,Unknown,Unknown
Hard Discount,nofrills,3947,Store 3947,Unknown,Unknown,AB,Unknown,Unknown,Unknown
Hard Discount,nofrills,3948,Store 3948,Unknown,Unknown,AB,Unknown,Unknown,Unknown
Hard Discount,nofrills,3968,Store 3968,Unknown,Unknown,BC,Unknown,Unknown,Unknown
Hard Discount,nofrills,3969,Store 3969,Unknown,Unknown,ON,Unknown,Unknown,Unknown
Hard Discount,nofrills,3976,Store 3976,Unknown,Unknown,BC,Unknown,Unknown,Unknown
Hard Discount,nofrills,3978,Store 3978,Unknown,Unknown,SK,Unknown,Unknown,Unknown
Hard Discount,nofrills,3979,Store 3979,Unknown,Unknown,BC,Unknown,Unknown,Unknown
Hard Discount,nofrills,3982,Store 3982,Unknown,Unknown,AB,Unknown,Unknown,Unknown
Hard Discount,nofrills,3985,Store 3985,Unknown,Unknown,BC,Unknown,Unknown,Unknown
Hard Discount,nofrills,3989,Store 3989,Unknown,Unknown,AB,Unknown,Unknown,Unknown
Hard Discount,nofrills,3992,Store 3992,Unknown,Unknown,BC,Unknown,Unknown,Unknown
Hard Discount,nofrills,3993,Store 3993,Unknown,Unknown,BC,Unknown,Unknown,Unknown
Hard Discount,nofrills,3995,Store 3995,Unknown,Unknown,AB,Unknown,Unknown,Unknown
Hard Discount,nofrills,4012,Store 4012,Unknown,Unknown,ON,Unknown,Unknown,Unknown
Super Market,Your Independent Grocer,4020,Store 4020,Unknown,Unknown,ON,Unknown,Unknown,Unknown
Super Market,Your Independent Grocer,4027,Store 4027,Unknown,Unknown,ON,Unknown,Unknown,Unknown
Super Market,Your Independent Grocer,4033,Store 4033,Unknown,Unknown,ON,Unknown,Unknown,Unknown
Super Market,Your Independent Grocer,4428,Store 4428,Unknown,Unknown,ON,Unknown,Unknown,Unknown
Super Market,Your Independent Grocer,4429,Store 4429,Unknown,Unknown,AB,Unknown,Unknown,Unknown
Super Market,Your Independent Grocer,4430,Store 4430,Unknown,Unknown,ON,Unknown,Unknown,Unknown
Emerging,Real Canadian Liquor Store,4431,Store 4431,Unknown,Unknown,AB,Unknown,Unknown,Unknown
Hard Discount,nofrills,4489,Store 4489,Unknown,Unknown,AB,Unknown,Unknown,Unknown
Super Market,Your Independent Grocer,4533,Store 4533,Unknown,Unknown,ON,Unknown,Unknown,Unknown
Escompte,Maxi,4540,Store 4540,Unknown,Unknown,QC,Unknown,Unknown,Unknown
Escompte,Maxi,4541,Store 4541,Unknown,Unknown,QC,Unknown,Unknown,Unknown
Escompte,Maxi,4544,Store 4544,Unknown,Unknown,QC,Unknown,Unknown,Unknown
Escompte,Maxi,4552,Store 4552,Unknown,Unknown,QC,Unknown,Unknown,Unknown
Escompte,Maxi,4554,Store 4554,Unknown,Unknown,QC,Unknown,Unknown,Unknown
Escompte,Maxi,4558,Store 4558,Unknown,Unknown,QC,Unknown,Unknown,Unknown
Escompte,Maxi,4559,Store 4559,Unknown,Unknown,QC,Unknown,Unknown,Unknown
Escompte,Maxi,4561,Store 4561,Unknown,Unknown,QC,Unknown,Unknown,Unknown
Escompte,Maxi,4564,Store 4564,Unknown,Unknown,QC,Unknown,Unknown,Unknown
Escompte,Maxi,4565,Store 4565,Unknown,Unknown,QC,Unknown,Unknown,Unknown
Escompte,Maxi,4669,Store 4669,Unknown,Unknown,QC,Unknown,Unknown,Unknown
Escompte,Maxi,5401,Store 5401,Unknown,Unknown,QC,Unknown,Unknown,Unknown
Escompte,Maxi,5402,Store 5402,Unknown,Unknown,QC,Unknown,Unknown,Unknown
Escompte,Maxi,5403,Store 5403,Unknown,Unknown,QC,Unknown,Unknown,Unknown
Escompte,Maxi,5404,Store 5404,Unknown,Unknown,QC,Unknown,Unknown,Unknown
Escompte,Maxi,5405,Store 5405,Unknown,Unknown,QC,Unknown,Unknown,Unknown
Hard Discount,nofrills,5456,Store 5456,Unknown,Unknown,MB,Unknown,Unknown,Unknown
Hard Discount,nofrills,5457,Store 5457,Unknown,Unknown,AB,Unknown,Unknown,Unknown
Hard Discount,nofrills,5458,Store 5458,Unknown,Unknown,AB,Unknown,Unknown,Unknown
Hard Discount,nofrills,5459,Store 5459,Unknown,Unknown,ON,Unknown,Unknown,Unknown
Super Market,Your Independent Grocer,5488,Store 5488,Unknown,Unknown,BC,Unknown,Unknown,Unknown
Super Market,Your Independent Grocer,5489,Store 5489,Unknown,Unknown,BC,Unknown,Unknown,Unknown
Super Market,Your Independent Grocer,5490,Store 5490,Unknown,Unknown,SK,Unknown,Unknown,Unknown
Super Market,Fortinos,5547,Store 5547,Unknown,Unknown,ON,Unknown,Unknown,Unknown
Super Market,Fortinos,5548,Store 5548,Unknown,Unknown,ON,Unknown,Unknown,Unknown
Hard Discount,nofrills,5549,Store 5549,Unknown,Unknown,BC,Unknown,Unknown,Unknown
Super Market,Zehrs,6583,Store 6583,Unknown,Unknown,ON,Unknown,Unknown,Unknown
Super Market,Wholesale Club,6701,Store 6701,Unknown,Unknown,SK,Unknown,Unknown,Unknown
Super Market,Wholesale Club,6703,Store 6703,Unknown,Unknown,MB,Unknown,Unknown,Unknown
Super Market,Wholesale Club,6705,Store 6705,Unknown,Unknown,SK,Unknown,Unknown,Unknown
Super Market,Wholesale Club,6708,Store 6708,Unknown,Unknown,BC,Unknown,Unknown,Unknown
Super Market,Wholesale Club,6709,Store 6709,Unknown,Unknown,AB,Unknown,Unknown,Unknown
Super Market,Wholesale Club,6710,Store 6710,Unknown,Unknown,AB,Unknown,Unknown,Unknown
Super Market,Wholesale Club,6711,Store 6711,Unknown,Unknown,SK,Unknown,Unknown,Unknown
Super Market,Wholesale Club,6712,Store 6712,Unknown,Unknown,SK,Unknown,Unknown,Unknown
Super Market,Wholesale Club,6713,Store 6713,Unknown,Unknown,AB,Unknown,Unknown,Unknown
Super Market,Wholesale Club,6714,Store 6714,Unknown,Unknown,AB,Unknown,Unknown,Unknown
Super Market,Wholesale Club,6715,Store 6715,Unknown,Unknown,AB,Unknown,Unknown,Unknown
Super Market,Wholesale Club,6716,Store 6716,Unknown,Unknown,AB,Unknown,Unknown,Unknown
Super Market,Wholesale Club,6717,Store 6717,Unknown,Unknown,AB,Unknown,Unknown,Unknown
Super Market,Wholesale Club,6719,Store 6719,Unknown,Unknown,BC,Unknown,Unknown,Unknown
Super Market,Wholesale Club,6720,Store 6720,Unknown,Unknown,ON,Unknown,Unknown,Unknown
Super Market,Wholesale Club,6722,Store 6722,Unknown,Unknown,BC,Unknown,Unknown,Unknown
Super Market,Wholesale Club,6725,Store 6725,Unknown,Unknown,BC,Unknown,Unknown,Unknown
Super Market,Wholesale Club,6728,Store 6728,Unknown,Unknown,BC,Unknown,Unknown,Unknown
Super Market,Wholesale Club,6732,Store 6732,Unknown,Unknown,BC,Unknown,Unknown,Unknown
Super Market,Wholesale Club,6733,Store 6733,Unknown,Unknown,BC,Unknown,Unknown,Unknown
Super Market,Wholesale Club,6734,Store 6734,Unknown,Unknown,BC,Unknown,Unknown,Unknown
Super Market,Wholesale Club,6735,Store 6735,Unknown,Unknown,BC,Unknown,Unknown,Unknown
Super Market,Wholesale Club,6746,Store 6746,Unknown,Unknown,ON,Unknown,Unknown,Unknown
Super Market,Wholesale Club,6760,Store 6760,Unknown,Unknown,SK,Unknown,Unknown,Unknown
Hard Discount,nofrills,6790,Store 6790,Unknown,Unknown,ON,Unknown,Unknown,Unknown
Hard Discount,nofrills,6797,Store 6797,Unknown,Unknown,ON,Unknown,Unknown,Unknown
Hard Discount,nofrills,6798,Store 6798,Unknown,Unknown,ON,Unknown,Unknown,Unknown
Super Market,valu-mart,6799,Store 6799,Unknown,Unknown,ON,Unknown,Unknown,Unknown
Super Market,Real Canadian Superstore,6885,Store 6885,Unknown,Unknown,ON,Unknown,Unknown,Unknown
Hard Discount,nofrills,6930,Store 6930,Unknown,Unknown,AB,Unknown,Unknown,Unknown
Hard Discount,nofrills,6945,Store 6945,Unknown,Unknown,ON,Unknown,Unknown,Unknown
Super Market,Your Independent Grocer,6951,Store 6951,Unknown,Unknown,BC,Unknown,Unknown,Unknown
Super Market,Wholesale Club,6952,Store 6952,Unknown,Unknown,ON,Unknown,Unknown,Unknown
Hard Discount,nofrills,6961,Store 6961,Unknown,Unknown,SK,Unknown,Unknown,Unknown
Hard Discount,nofrills,6962,Store 6962,Unknown,Unknown,ON,Unknown,Unknown,Unknown
Hard Discount,nofrills,6971,Store 6971,Unknown,Unknown,BC,Unknown,Unknown,Unknown
Hard Discount,nofrills,7026,Store 7026,Unknown,Unknown,ON,Unknown,Unknown,Unknown
Hard Discount,nofrills,7031,Store 7031,Unknown,Unknown,AB,Unknown,Unknown,Unknown
Hard Discount,nofrills,7032,Store 7032,Unknown,Unknown,ON,Unknown,Unknown,Unknown
Hard Discount,nofrills,7047,Store 7047,Unknown,Unknown,ON,Unknown,Unknown,Unknown
Hard Discount,nofrills,7074,Store 7074,Unknown,Unknown,MB,Unknown,Unknown,Unknown
Hard Discount,nofrills,7076,Store 7076,Unknown,Unknown,ON,Unknown,Unknown,Unknown
Hard Discount,nofrills,7077,Store 7077,Unknown,Unknown,SK,Unknown,Unknown,Unknown
Escompte,Maxi,7079,Store 7079,Unknown,Unknown,QC,Unknown,Unknown,Unknown
Hard Discount,nofrills,7087,Store 7087,Unknown,Unknown,ON,Unknown,Unknown,Unknown
Super Market,Provigo Franchise,7115,Store 7115,Unknown,Unknown,QC,Unknown,Unknown,Unknown
Hard Discount,nofrills,7134,Store 7134,Unknown,Unknown,AB,Unknown,Unknown,Unknown
Hard Discount,nofrills,7135,Store 7135,Unknown,Unknown,ON,Unknown,Unknown,Unknown
Super Market,Fortinos,7136,Store 7136,Unknown,Unknown,ON,Unknown,Unknown,Unknown
Hard Discount,nofrills,7137,Store 7137,Unknown,Unknown,ON,Unknown,Unknown,Unknown
Hard Discount,nofrills,7138,Store 7138,Unknown,Unknown,ON,Unknown,Unknown,Unknown
Emerging,Real Canadian Liquor Store,7139,Store 7139,Unknown,Unknown,AB,Unknown,Unknown,Unknown
Escompte,Maxi,7140,Store 7140,Unknown,Unknown,QC,Unknown,Unknown,Unknown
Hard Discount,nofrills,7141,Store 7141,Unknown,Unknown,MB,Unknown,Unknown,Unknown
Super Market,Your Independent Grocer,7142,Store 7142,Unknown,Unknown,NB,Unknown,Unknown,Unknown
Super Market,Your Independent Grocer,7144,Store 7144,Unknown,Unknown,AB,Unknown,Unknown,Unknown
Hard Discount,nofrills,7146,Store 7146,Unknown,Unknown,AB,Unknown,Unknown,Unknown
Hard Discount,nofrills,7147,Store 7147,Unknown,Unknown,AB,Unknown,Unknown,Unknown
Super Market,Your Independent Grocer,7148,Store 7148,Unknown,Unknown,NB,Unknown,Unknown,Unknown
Hard Discount,nofrills,7151,Store 7151,Unknown,Unknown,MB,Unknown,Unknown,Unknown
Super Market,Your Independent Grocer,7152,Store 7152,Unknown,Unknown,SK,Unknown,Unknown,Unknown
Escompte,Maxi,7153,Store 7153,Unknown,Unknown,QC,Unknown,Unknown,Unknown
Super Market,Loblaws,7154,Store 7154,Unknown,Unknown,ON,Unknown,Unknown,Unknown
Super Market,Your Independent Grocer,7155,Store 7155,Unknown,Unknown,BC,Unknown,Unknown,Unknown
Super Market,Your Independent Grocer,7156,Store 7156,Unknown,Unknown,ON,Unknown,Unknown,Unknown
Hard Discount,nofrills,7159,Store 7159,Unknown,Unknown,ON,Unknown,Unknown,Unknown
Super Market,Your Independent Grocer,7161,Store 7161,Unknown,Unknown,ON,Unknown,Unknown,Unknown
Super Market,valu-mart,7162,Store 7162,Unknown,Unknown,ON,Unknown,Unknown,Unknown
Super Market,Your Independent Grocer,7164,Store 7164,Unknown,Unknown,ON,Unknown,Unknown,Unknown
Hard Discount,nofrills,7166,Store 7166,Unknown,Unknown,ON,Unknown,Unknown,Unknown
Hard Discount,nofrills,7167,Store 7167,Unknown,Unknown,ON,Unknown,Unknown,Unknown
Super Market,Your Independent Grocer,7170,Store 7170,Unknown,Unknown,PE,Unknown,Unknown,Unknown
Super Market,Your Independent Grocer,7172,Store 7172,Unknown,Unknown,NB,Unknown,Unknown,Unknown
Hard Discount,nofrills,7175,Store 7175,Unknown,Unknown,ON,Unknown,Unknown,Unknown
Hard Discount,nofrills,7177,Store 7177,Unknown,Unknown,NS,Unknown,Unknown,Unknown
Super Market,Your Independent Grocer,7178,Store 7178,Unknown,Unknown,ON,Unknown,Unknown,Unknown
Super Market,Your Independent Grocer,7179,Store 7179,Unknown,Unknown,ON,Unknown,Unknown,Unknown
Super Market,Your Independent Grocer,7180,Store 7180,Unknown,Unknown,ON,Unknown,Unknown,Unknown
Hard Discount,nofrills,7181,Store 7181,Unknown,Unknown,ON,Unknown,Unknown,Unknown
Hard Discount,nofrills,7182,Store 7182,Unknown,Unknown,ON,Unknown,Unknown,Unknown
Super Market,Your Independent Grocer,7183,Store 7183,Unknown,Unknown,NB,Unknown,Unknown,Unknown
Super Market,Your Independent Grocer,7184,Store 7184,Unknown,Unknown,NS,Unknown,Unknown,Unknown
Super Market,Your Independent Grocer,7187,Store 7187,Unknown,Unknown,SK,Unknown,Unknown,Unknown
Hard Discount,nofrills,7188,Store 7188,Unknown,Unknown,ON,Unknown,Unknown,Unknown
Hard Discount,nofrills,7191,Store 7191,Unknown,Unknown,ON,Unknown,Unknown,Unknown
Hard Discount,nofrills,7192,Store 7192,Unknown,Unknown,ON,Unknown,Unknown,Unknown
Super Market,Provigo Franchise,7195,Store 7195,Unknown,Unknown,QC,Unknown,Unknown,Unknown
Super Market,Provigo Franchise,7198,Store 7198,Unknown,Unknown,QC,Unknown,Unknown,Unknown
Super Market,Your Independent Grocer,7207,Store 7207,Unknown,Unknown,ON,Unknown,Unknown,Unknown
Escompte,Maxi,7209,Store 7209,Unknown,Unknown,QC,Unknown,Unknown,Unknown
Escompte,Maxi,7210,Store 7210,Unknown,Unknown,QC,Unknown,Unknown,Unknown
Escompte,Maxi,7211,Store 7211,Unknown,Unknown,QC,Unknown,Unknown,Unknown
Escompte,Maxi,7212,Store 7212,Unknown,Unknown,QC,Unknown,Unknown,Unknown
Escompte,Maxi,7213,Store 7213,Unknown,Unknown,QC,Unknown,Unknown,Unknown
Escompte,Maxi,7214,Store 7214,Unknown,Unknown,QC,Unknown,Unknown,Unknown
Escompte,Maxi,7215,Store 7215,Unknown,Unknown,QC,Unknown,Unknown,Unknown
Escompte,Maxi,7216,Store 7216,Unknown,Unknown,QC,Unknown,Unknown,Unknown
Escompte,Maxi,7218,Store 7218,Unknown,Unknown,QC,Unknown,Unknown,Unknown
Escompte,Maxi,7219,Store 7219,Unknown,Unknown,QC,Unknown,Unknown,Unknown
Escompte,Maxi,7220,Store 7220,Unknown,Unknown,QC,Unknown,Unknown,Unknown
Escompte,Maxi,7221,Store 7221,Unknown,Unknown,QC,Unknown,Unknown,Unknown
Escompte,Maxi,7222,Store 7222,Unknown,Unknown,QC,Unknown,Unknown,Unknown
Escompte,Maxi,7223,Store 7223,Unknown,Unknown,QC,Unknown,Unknown,Unknown
Escompte,Maxi,7224,Store 7224,Unknown,Unknown,QC,Unknown,Unknown,Unknown
Escompte,Maxi,7225,Store 7225,Unknown,Unknown,QC,Unknown,Unknown,Unknown
Escompte,Maxi,7226,Store 7226,Unknown,Unknown,QC,Unknown,Unknown,Unknown
Hard Discount,nofrills,7227,Store 7227,Unknown,Unknown,ON,Unknown,Unknown,Unknown
Hard Discount,nofrills,7228,Store 7228,Unknown,Unknown,ON,Unknown,Unknown,Unknown
Hard Discount,nofrills,7229,Store 7229,Unknown,Unknown,ON,Unknown,Unknown,Unknown
Super Market,Your Independent Grocer,7230,Store 7230,Unknown,Unknown,AB,Unknown,Unknown,Unknown
Escompte,Maxi,7231,Store 7231,Unknown,Unknown,QC,Unknown,Unknown,Unknown
Escompte,Maxi,7233,Store 7233,Unknown,Unknown,QC,Unknown,Unknown,Unknown
Escompte,Maxi,7234,Store 7234,Unknown,Unknown,QC,Unknown,Unknown,Unknown
Hard Discount,nofrills,7235,Store 7235,Unknown,Unknown,AB,Unknown,Unknown,Unknown
Hard Discount,nofrills,7236,Store 7236,Unknown,Unknown,ON,Unknown,Unknown,Unknown
Super Market,Provigo Franchise,7288,Store 7288,Unknown,Unknown,QC,Unknown,Unknown,Unknown
Super Market,Provigo Franchise,7293,Store 7293,Unknown,Unknown,QC,Unknown,Unknown,Unknown
Super Market,Provigo Franchise,7295,Store 7295,Unknown,Unknown,QC,Unknown,Unknown,Unknown
Super Market,Provigo Franchise,7297,Store 7297,Unknown,Unknown,QC,Unknown,Unknown,Unknown
Super Market,Your Independent Grocer,7309,Store 7309,Unknown,Unknown,AB,Unknown,Unknown,Unknown
Super Market,Your Independent Grocer,7316,Store 7316,Unknown,Unknown,BC,Unknown,Unknown,Unknown
Super Market,Your Independent Grocer,7323,Store 7323,Unknown,Unknown,NWT,Unknown,Unknown,Unknown
Super Market,Your Independent Grocer,7329,Store 7329,Unknown,Unknown,SK,Unknown,Unknown,Unknown
Super Market,Fortinos,7346,Store 7346,Unknown,Unknown,ON,Unknown,Unknown,Unknown
Super Market,Your Independent Grocer,7353,Store 7353,Unknown,Unknown,ON,Unknown,Unknown,Unknown
Super Market,Your Independent Grocer,7355,Store 7355,Unknown,Unknown,ON,Unknown,Unknown,Unknown
Super Market,Your Independent Grocer,7362,Store 7362,Unknown,Unknown,ON,Unknown,Unknown,Unknown
Super Market,Your Independent Grocer,7369,Store 7369,Unknown,Unknown,ON,Unknown,Unknown,Unknown
Super Market,Your Independent Grocer,7377,Store 7377,Unknown,Unknown,ON,Unknown,Unknown,Unknown
Hard Discount,nofrills,7392,Store 7392,Unknown,Unknown,ON,Unknown,Unknown,Unknown
Hard Discount,nofrills,7395,Store 7395,Unknown,Unknown,ON,Unknown,Unknown,Unknown
Hard Discount,nofrills,7397,Store 7397,Unknown,Unknown,ON,Unknown,Unknown,Unknown
Hard Discount,nofrills,7411,Store 7411,Unknown,Unknown,ON,Unknown,Unknown,Unknown
Hard Discount,nofrills,7415,Store 7415,Unknown,Unknown,ON,Unknown,Unknown,Unknown
Hard Discount,nofrills,7432,Store 7432,Unknown,Unknown,ON,Unknown,Unknown,Unknown
Hard Discount,nofrills,7444,Store 7444,Unknown,Unknown,ON,Unknown,Unknown,Unknown
Super Market,Your Independent Grocer,7460,Store 7460,Unknown,Unknown,NS,Unknown,Unknown,Unknown
Super Market,Your Independent Grocer,7461,Store 7461,Unknown,Unknown,NS,Unknown,Unknown,Unknown
Super Market,Your Independent Grocer,7470,Store 7470,Unknown,Unknown,NB,Unknown,Unknown,Unknown
Hard Discount,nofrills,7487,Store 7487,Unknown,Unknown,AB,Unknown,Unknown,Unknown
Hard Discount,nofrills,7488,Store 7488,Unknown,Unknown,BC,Unknown,Unknown,Unknown
Super Market,Your Independent Grocer,7491,Store 7491,Unknown,Unknown,BC,Unknown,Unknown,Unknown
Super Market,Your Independent Grocer,7492,Store 7492,Unknown,Unknown,SK,Unknown,Unknown,Unknown
Super Market,Your Independent Grocer,7493,Store 7493,Unknown,Unknown,NWT,Unknown,Unknown,Unknown
Super Market,Your Independent Grocer,7494,Store 7494,Unknown,Unknown,BC,Unknown,Unknown,Unknown
Escompte,Maxi,7495,Store 7495,Unknown,Unknown,QC,Unknown,Unknown,Unknown
Hard Discount,nofrills,7496,Store 7496,Unknown,Unknown,ON,Unknown,Unknown,Unknown
Hard Discount,nofrills,7498,Store 7498,Unknown,Unknown,ON,Unknown,Unknown,Unknown
Hard Discount,nofrills,7499,Store 7499,Unknown,Unknown,MB,Unknown,Unknown,Unknown
Super Market,valu-mart,7500,Store 7500,Unknown,Unknown,ON,Unknown,Unknown,Unknown
Hard Discount,nofrills,7502,Store 7502,Unknown,Unknown,ON,Unknown,Unknown,Unknown
Hard Discount,nofrills,7503,Store 7503,Unknown,Unknown,ON,Unknown,Unknown,Unknown
Hard Discount,nofrills,7504,Store 7504,Unknown,Unknown,ON,Unknown,Unknown,Unknown
Hard Discount,nofrills,7505,Store 7505,Unknown,Unknown,ON,Unknown,Unknown,Unknown
Super Market,Your Independent Grocer,7506,Store 7506,Unknown,Unknown,ON,Unknown,Unknown,Unknown
Hard Discount,nofrills,7507,Store 7507,Unknown,Unknown,MB,Unknown,Unknown,Unknown
Hard Discount,nofrills,7508,Store 7508,Unknown,Unknown,ON,Unknown,Unknown,Unknown
Hard Discount,nofrills,7509,Store 7509,Unknown,Unknown,ON,Unknown,Unknown,Unknown
Super Market,Your Independent Grocer,7511,Store 7511,Unknown,Unknown,ON,Unknown,Unknown,Unknown
Hard Discount,nofrills,7512,Store 7512,Unknown,Unknown,ON,Unknown,Unknown,Unknown
Super Market,Fortinos,7513,Store 7513,Unknown,Unknown,ON,Unknown,Unknown,Unknown
Hard Discount,nofrills,7514,Store 7514,Unknown,Unknown,ON,Unknown,Unknown,Unknown
Hard Discount,nofrills,7515,Store 7515,Unknown,Unknown,AB,Unknown,Unknown,Unknown
Super Market,Your Independent Grocer,7517,Store 7517,Unknown,Unknown,ON,Unknown,Unknown,Unknown
Hard Discount,nofrills,7518,Store 7518,Unknown,Unknown,ON,Unknown,Unknown,Unknown
Super Market,Your Independent Grocer,7520,Store 7520,Unknown,Unknown,ON,Unknown,Unknown,Unknown
Super Market,valu-mart,7521,Store 7521,Unknown,Unknown,ON,Unknown,Unknown,Unknown
Super Market,valu-mart,7522,Store 7522,Unknown,Unknown,ON,Unknown,Unknown,Unknown
Super Market,Your Independent Grocer,7524,Store 7524,Unknown,Unknown,ON,Unknown,Unknown,Unknown
Super Market,Your Independent Grocer,7525,Store 7525,Unknown,Unknown,ON ,Unknown,Unknown,Unknown
Super Market,Atlantic Superstore,7526,Store 7526,Unknown,Unknown,NB,Unknown,Unknown,Unknown
Hard Discount,nofrills,7527,Store 7527,Unknown,Unknown,ON,Unknown,Unknown,Unknown
Hard Discount,nofrills,7528,Store 7528,Unknown,Unknown,ON,Unknown,Unknown,Unknown
Super Market,Fortinos,7529,Store 7529,Unknown,Unknown,ON,Unknown,Unknown,Unknown
Hard Discount,nofrills,7530,Store 7530,Unknown,Unknown,AB,Unknown,Unknown,Unknown
Hard Discount,nofrills,7531,Store 7531,Unknown,Unknown,ON,Unknown,Unknown,Unknown
Hard Discount,nofrills,7532,Store 7532,Unknown,Unknown,ON,Unknown,Unknown,Unknown
Super Market,Your Independent Grocer,7533,Store 7533,Unknown,Unknown,ON ,Unknown,Unknown,Unknown
Super Market,Your Independent Grocer,7534,Store 7534,Unknown,Unknown,BC,Unknown,Unknown,Unknown
Super Market,Your Independent Grocer,7535,Store 7535,Unknown,Unknown,ON,Unknown,Unknown,Unknown
Super Market,Your Independent Grocer,7536,Store 7536,Unknown,Unknown,NL,Unknown,Unknown,Unknown
Super Market,Your Independent Grocer,7537,Store 7537,Unknown,Unknown,NB,Unknown,Unknown,Unknown
Hard Discount,nofrills,7540,Store 7540,Unknown,Unknown,ON,Unknown,Unknown,Unknown
Super Market,Your Independent Grocer,7541,Store 7541,Unknown,Unknown,ON,Unknown,Unknown,Unknown
Hard Discount,nofrills,7542,Store 7542,Unknown,Unknown,ON,Unknown,Unknown,Unknown
Hard Discount,nofrills,7544,Store 7544,Unknown,Unknown,ON,Unknown,Unknown,Unknown
Super Market,Your Independent Grocer,7545,Store 7545,Unknown,Unknown,AB,Unknown,Unknown,Unknown
Super Market,Your Independent Grocer,7546,Store 7546,Unknown,Unknown,NB,Unknown,Unknown,Unknown
Escompte,Maxi,7547,Store 7547,Unknown,Unknown,QC,Unknown,Unknown,Unknown
Escompte,Maxi,7548,Store 7548,Unknown,Unknown,QC,Unknown,Unknown,Unknown
Escompte,Maxi,7549,Store 7549,Unknown,Unknown,QC,Unknown,Unknown,Unknown
Escompte,Maxi,7550,Store 7550,Unknown,Unknown,QC,Unknown,Unknown,Unknown
Escompte,Maxi,7551,Store 7551,Unknown,Unknown,QC,Unknown,Unknown,Unknown
Escompte,Maxi,7552,Store 7552,Unknown,Unknown,QC,Unknown,Unknown,Unknown
Escompte,Maxi,7553,Store 7553,Unknown,Unknown,QC,Unknown,Unknown,Unknown
Escompte,Maxi,7554,Store 7554,Unknown,Unknown,QC,Unknown,Unknown,Unknown
Escompte,Maxi,7555,Store 7555,Unknown,Unknown,QC,Unknown,Unknown,Unknown
Escompte,Maxi,7556,Store 7556,Unknown,Unknown,QC,Unknown,Unknown,Unknown
Escompte,Maxi,7557,Store 7557,Unknown,Unknown,QC,Unknown,Unknown,Unknown
Escompte,Maxi,7558,Store 7558,Unknown,Unknown,QC,Unknown,Unknown,Unknown
Escompte,Maxi,7559,Store 7559,Unknown,Unknown,QC,Unknown,Unknown,Unknown
Escompte,Maxi,7561,Store 7561,Unknown,Unknown,QC,Unknown,Unknown,Unknown
Escompte,Maxi,7562,Store 7562,Unknown,Unknown,QC,Unknown,Unknown,Unknown
Escompte,Maxi,7563,Store 7563,Unknown,Unknown,QC,Unknown,Unknown,Unknown
Escompte,Maxi,7564,Store 7564,Unknown,Unknown,QC,Unknown,Unknown,Unknown
Escompte,Maxi,7565,Store 7565,Unknown,Unknown,QC,Unknown,Unknown,Unknown
Escompte,Maxi,7566,Store 7566,Unknown,Unknown,QC,Unknown,Unknown,Unknown
Escompte,Maxi,7567,Store 7567,Unknown,Unknown,QC,Unknown,Unknown,Unknown
Escompte,Maxi,7568,Store 7568,Unknown,Unknown,QC,Unknown,Unknown,Unknown
Escompte,Maxi,7569,Store 7569,Unknown,Unknown,QC,Unknown,Unknown,Unknown
Escompte,Maxi,7570,Store 7570,Unknown,Unknown,QC,Unknown,Unknown,Unknown
Escompte,Maxi,7571,Store 7571,Unknown,Unknown,QC,Unknown,Unknown,Unknown
Escompte,Maxi,7572,Store 7572,Unknown,Unknown,QC,Unknown,Unknown,Unknown
Escompte,Maxi,7573,Store 7573,Unknown,Unknown,QC,Unknown,Unknown,Unknown
Escompte,Maxi,7574,Store 7574,Unknown,Unknown,QC,Unknown,Unknown,Unknown
Escompte,Maxi,7575,Store 7575,Unknown,Unknown,QC,Unknown,Unknown,Unknown
Escompte,Maxi,7577,Store 7577,Unknown,Unknown,QC,Unknown,Unknown,Unknown
Hard Discount,nofrills,7578,Store 7578,Unknown,Unknown,ON,Unknown,Unknown,Unknown
Hard Discount,nofrills,7579,Store 7579,Unknown,Unknown,SK,Unknown,Unknown,Unknown
Hard Discount,nofrills,7580,Store 7580,Unknown,Unknown,ON,Unknown,Unknown,Unknown
Super Market,Your Independent Grocer,7598,Store 7598,Unknown,Unknown,ON,Unknown,Unknown,Unknown
Super Market,Provigo Franchise,7599,Store 7599,Unknown,Unknown,QC,Unknown,Unknown,Unknown
Super Market,Your Independent Grocer,7605,Store 7605,Unknown,Unknown,ON,Unknown,Unknown,Unknown
Super Market,Provigo Franchise,7606,Store 7606,Unknown,Unknown,QC,Unknown,Unknown,Unknown
Hard Discount,nofrills,7648,Store 7648,Unknown,Unknown,NB,Unknown,Unknown,Unknown
Hard Discount,nofrills,7649,Store 7649,Unknown,Unknown,ON,Unknown,Unknown,Unknown
Hard Discount,nofrills,7655,Store 7655,Unknown,Unknown,AB,Unknown,Unknown,Unknown
Escompte,Maxi,7657,Store 7657,Unknown,Unknown,QC,Unknown,Unknown,Unknown
Supet Market,Your Independent Grocer,7906,Store 7906,Unknown,Unknown,AB,Unknown,Unknown,Unknown
Super Market,Provigo Franchise,7907,Store 7907,Unknown,Unknown,QC,Unknown,Unknown,Unknown
Super Market,Provigo Franchise,7908,Store 7908,Unknown,Unknown,QC,Unknown,Unknown,Unknown
Hard Discount,nofrills,7909,Store 7909,Unknown,Unknown,ON,Unknown,Unknown,Unknown
Super Market,Provigo Franchise,7910,Store 7910,Unknown,Unknown,QC,Unknown,Unknown,Unknown
Hard Discount,nofrills,7911,Store 7911,Unknown,Unknown,ON,Unknown,Unknown,Unknown
Super Market,valu-mart,7913,Store 7913,Unknown,Unknown,ON,Unknown,Unknown,Unknown
Super Market,Your Independent Grocer,7914,Store 7914,Unknown,Unknown,ON,Unknown,Unknown,Unknown
Super Market,Your Independent Grocer,7915,Store 7915,Unknown,Unknown,ON,Unknown,Unknown,Unknown
Super Market,Your Independent Grocer,7916,Store 7916,Unknown,Unknown,ON,Unknown,Unknown,Unknown
Super Market,Your Independent Grocer,7917,Store 7917,Unknown,Unknown,ON,Unknown,Unknown,Unknown
Super Market,valu-mart,7918,Store 7918,Unknown,Unknown,ON,Unknown,Unknown,Unknown
Super Market,Fortinos,7920,Store 7920,Unknown,Unknown,ON,Unknown,Unknown,Unknown
Hard Discount,nofrills,7921,Store 7921,Unknown,Unknown,ON,Unknown,Unknown,Unknown
Hard Discount,nofrills,7922,Store 7922,Unknown,Unknown,BC,Unknown,Unknown,Unknown
Super Market,valu-mart,7923,Store 7923,Unknown,Unknown,ON,Unknown,Unknown,Unknown
Super Market,Your Independent Grocer,7924,Store 7924,Unknown,Unknown,ON,Unknown,Unknown,Unknown
Super Market,Your Independent Grocer,7925,Store 7925,Unknown,Unknown,ON,Unknown,Unknown,Unknown
Super Market,Your Independent Grocer,7926,Store 7926,Unknown,Unknown,ON,Unknown,Unknown,Unknown
Super Market,Your Independent Grocer,7927,Store 7927,Unknown,Unknown,ON,Unknown,Unknown,Unknown
Hard Discount,nofrills,7928,Store 7928,Unknown,Unknown,AB,Unknown,Unknown,Unknown
Hard Discount,NoFrills ,7929,Store 7929,Unknown,Unknown,AB,Unknown,Unknown,Unknown
Hard Discount,nofrills,7930,Store 7930,Unknown,Unknown,AB,Unknown,Unknown,Unknown
Super Market,Your Independent Grocer,7932,Store 7932,Unknown,Unknown,ON,Unknown,Unknown,Unknown
Hard Discount,nofrills,7934,Store 7934,Unknown,Unknown,ON,Unknown,Unknown,Unknown
Hard Discount,nofrills,7935,Store 7935,Unknown,Unknown,ON,Unknown,Unknown,Unknown
Hard Discount,nofrills,7936,Store 7936,Unknown,Unknown,ON,Unknown,Unknown,Unknown
Hard Discount,nofrills,7937,Store 7937,Unknown,Unknown,ON,Unknown,Unknown,Unknown
Hard Discount,nofrills,7938,Store 7938,Unknown,Unknown,NB,Unknown,Unknown,Unknown
Hard Discount,nofrills,7939,Store 7939,Unknown,Unknown,NL,Unknown,Unknown,Unknown
Hard Discount,nofrills,7940,Store 7940,Unknown,Unknown,ON,Unknown,Unknown,Unknown
Hard Discount,nofrills,7941,Store 7941,Unknown,Unknown,ON,Unknown,Unknown,Unknown
Hard Discount,nofrills,7942,Store 7942,Unknown,Unknown,ON,Unknown,Unknown,Unknown
Hard Discount,nofrills,7943,Store 7943,Unknown,Unknown,ON,Unknown,Unknown,Unknown
Hard Discount,nofrills,7944,Store 7944,Unknown,Unknown,AB,Unknown,Unknown,Unknown
Escompte,Maxi,7945,Store 7945,Unknown,Unknown,qc,Unknown,Unknown,Unknown
Hard Discount,nofrills,7947,Store 7947,Unknown,Unknown,ON,Unknown,Unknown,Unknown
Hard Discount,nofrills,7949,Store 7949,Unknown,Unknown,ON,Unknown,Unknown,Unknown
Hard Discount,nofrills,7951,Store 7951,Unknown,Unknown,ON,Unknown,Unknown,Unknown
Hard Discount,nofrills,7952,Store 7952,Unknown,Unknown,ON,Unknown,Unknown,Unknown
Hard Discount,nofrills,7953,Store 7953,Unknown,Unknown,BC,Unknown,Unknown,Unknown
Hard Discount,nofrills,7954,Store 7954,Unknown,Unknown,ON,Unknown,Unknown,Unknown
Hard Discount,nofrills,7955,Store 7955,Unknown,Unknown,ON,Unknown,Unknown,Unknown
Hard Discount,nofrills,7956,Store 7956,Unknown,Unknown,ON,Unknown,Unknown,Unknown
Escompte,Maxi,7957,Store 7957,Unknown,Unknown,QC,Unknown,Unknown,Unknown
Escompte,Maxi,7958,Store 7958,Unknown,Unknown,QC,Unknown,Unknown,Unknown
Hard Discount,nofrills,7961,Store 7961,Unknown,Unknown,ON,Unknown,Unknown,Unknown
Super Market,Your Independent Grocer,7962,Store 7962,Unknown,Unknown,ON,Unknown,Unknown,Unknown
Hard Discount,nofrills,7964,Store 7964,Unknown,Unknown,ON,Unknown,Unknown,Unknown
Hard Discount,nofrills,7965,Store 7965,Unknown,Unknown,ON,Unknown,Unknown,Unknown
Hard Discount,nofrills,7966,Store 7966,Unknown,Unknown,AB,Unknown,Unknown,Unknown
Super Market,Your Independent Grocer,7971,Store 7971,Unknown,Unknown,ON,Unknown,Unknown,Unknown
Super Market,Your Independent Grocer,7973,Store 7973,Unknown,Unknown,ON,Unknown,Unknown,Unknown
Super Market,Your Independent Grocer,7974,Store 7974,Unknown,Unknown,ON,Unknown,Unknown,Unknown
Super Market,valu-mart,7975,Store 7975,Unknown,Unknown,ON,Unknown,Unknown,Unknown
Super Market,valu-mart,7980,Store 7980,Unknown,Unknown,QC,Unknown,Unknown,Unknown
Hard Discount,nofrills,7995,Store 7995,Unknown,Unknown,AB,Unknown,Unknown,Unknown
Hard Discount,nofrills,7996,Store 7996,Unknown,Unknown,MB,Unknown,Unknown,Unknown
Escompte,Maxi,8049,Store 8049,Unknown,Unknown,QC,Unknown,Unknown,Unknown
Super Market,Provigo Franchise,8180,Store 8180,Unknown,Unknown,QC,Unknown,Unknown,Unknown
Super Market,Club Entrepot ,8215,Store 8215,Unknown,Unknown,QC,Unknown,Unknown,Unknown
Super Market,Club Entrepot ,8222,Store 8222,Unknown,Unknown,QC,Unknown,Unknown,Unknown
Super Market,Club Entrepot ,8226,Store 8226,Unknown,Unknown,QC,Unknown,Unknown,Unknown
Super Market,Club Entrepot ,8231,Store 8231,Unknown,Unknown,QC,Unknown,Unknown,Unknown
Super Market,Club Entrepot ,8236,Store 8236,Unknown,Unknown,QC,Unknown,Unknown,Unknown
Super Market,Club Entrepot ,8239,Store 8239,Unknown,Unknown,QC,Unknown,Unknown,Unknown
Super Market,Club Entrepot ,8240,Store 8240,Unknown,Unknown,QC,Unknown,Unknown,Unknown
Super Market,Club Entrepot ,8241,Store 8241,Unknown,Unknown,QC,Unknown,Unknown,Unknown
Super Market,Club Entrepot ,8242,Store 8242,Unknown,Unknown,QC,Unknown,Unknown,Unknown
Super Market,Club Entrepot ,8243,Store 8243,Unknown,Unknown,QC,Unknown,Unknown,Unknown
Escompte,Maxi,8384,Store 8384,Unknown,Unknown,QC,Unknown,Unknown,Unknown
Escompte,Maxi,8386,Store 8386,Unknown,Unknown,QC,Unknown,Unknown,Unknown
Escompte,Maxi,8388,Store 8388,Unknown,Unknown,QC,Unknown,Unknown,Unknown
Escompte,Maxi,8389,Store 8389,Unknown,Unknown,QC,Unknown,Unknown,Unknown
Escompte,Maxi,8493,Store 8493,Unknown,Unknown,QC,Unknown,Unknown,Unknown
Super Market,Provigo Franchise,8495,Store 8495,Unknown,Unknown,QC,Unknown,Unknown,Unknown
Escompte,Maxi,8602,Store 8602,Unknown,Unknown,QC,Unknown,Unknown,Unknown
Escompte,Maxi,8609,Store 8609,Unknown,Unknown,QC,Unknown,Unknown,Unknown
Escompte,Maxi,8612,Store 8612,Unknown,Unknown,QC,Unknown,Unknown,Unknown
Escompte,Maxi,8616,Store 8616,Unknown,Unknown,QC,Unknown,Unknown,Unknown
Escompte,Maxi,8618,Store 8618,Unknown,Unknown,QC,Unknown,Unknown,Unknown
Escompte,Maxi,8619,Store 8619,Unknown,Unknown,QC,Unknown,Unknown,Unknown
Escompte,Maxi,8621,Store 8621,Unknown,Unknown,QC,Unknown,Unknown,Unknown
Escompte,Maxi,8622,Store 8622,Unknown,Unknown,QC,Unknown,Unknown,Unknown
Escompte,Maxi,8624,Store 8624,Unknown,Unknown,QC,Unknown,Unknown,Unknown
Escompte,Maxi,8625,Store 8625,Unknown,Unknown,QC,Unknown,Unknown,Unknown
Escompte,Maxi,8626,Store 8626,Unknown,Unknown,QC,Unknown,Unknown,Unknown
Escompte,Maxi,8629,Store 8629,Unknown,Unknown,QC,Unknown,Unknown,Unknown
Escompte,Maxi,8630,Store 8630,Unknown,Unknown,QC,Unknown,Unknown,Unknown
Escompte,Maxi,8632,Store 8632,Unknown,Unknown,QC,Unknown,Unknown,Unknown
Escompte,Maxi,8634,Store 8634,Unknown,Unknown,QC,Unknown,Unknown,Unknown
Escompte,Maxi,8635,Store 8635,Unknown,Unknown,QC,Unknown,Unknown,Unknown
Escompte,Maxi,8636,Store 8636,Unknown,Unknown,QC,Unknown,Unknown,Unknown
Escompte,Maxi,8641,Store 8641,Unknown,Unknown,QC,Unknown,Unknown,Unknown
Escompte,Maxi,8643,Store 8643,Unknown,Unknown,QC,Unknown,Unknown,Unknown
Escompte,Maxi,8645,Store 8645,Unknown,Unknown,QC,Unknown,Unknown,Unknown
Escompte,Maxi,8648,Store 8648,Unknown,Unknown,QC,Unknown,Unknown,Unknown
Escompte,Maxi,8649,Store 8649,Unknown,Unknown,QC,Unknown,Unknown,Unknown
Escompte,Maxi,8652,Store 8652,Unknown,Unknown,QC,Unknown,Unknown,Unknown
Escompte,Maxi,8653,Store 8653,Unknown,Unknown,QC,Unknown,Unknown,Unknown
Escompte,Maxi,8654,Store 8654,Unknown,Unknown,QC,Unknown,Unknown,Unknown
Escompte,Maxi,8655,Store 8655,Unknown,Unknown,QC,Unknown,Unknown,Unknown
Escompte,Maxi,8660,Store 8660,Unknown,Unknown,QC,Unknown,Unknown,Unknown
Escompte,Maxi,8661,Store 8661,Unknown,Unknown,QC,Unknown,Unknown,Unknown
Escompte,Maxi,8662,Store 8662,Unknown,Unknown,QC,Unknown,Unknown,Unknown
Escompte,Maxi,8663,Store 8663,Unknown,Unknown,QC,Unknown,Unknown,Unknown
Escompte,Maxi,8664,Store 8664,Unknown,Unknown,QC,Unknown,Unknown,Unknown
Escompte,Maxi,8666,Store 8666,Unknown,Unknown,QC,Unknown,Unknown,Unknown
Escompte,Maxi,8667,Store 8667,Unknown,Unknown,QC,Unknown,Unknown,Unknown
Escompte,Maxi,8668,Store 8668,Unknown,Unknown,QC,Unknown,Unknown,Unknown
Escompte,Maxi,8673,Store 8673,Unknown,Unknown,QC,Unknown,Unknown,Unknown
Escompte,Maxi,8675,Store 8675,Unknown,Unknown,QC,Unknown,Unknown,Unknown
Escompte,Maxi,8676,Store 8676,Unknown,Unknown,QC,Unknown,Unknown,Unknown
Escompte,Maxi,8677,Store 8677,Unknown,Unknown,QC,Unknown,Unknown,Unknown
Escompte,Maxi,8678,Store 8678,Unknown,Unknown,QC,Unknown,Unknown,Unknown
Escompte,Maxi,8679,Store 8679,Unknown,Unknown,QC,Unknown,Unknown,Unknown
Escompte,Maxi,8687,Store 8687,Unknown,Unknown,QC,Unknown,Unknown,Unknown
Escompte,Maxi,8688,Store 8688,Unknown,Unknown,QC,Unknown,Unknown,Unknown
Escompte,Maxi,8690,Store 8690,Unknown,Unknown,QC,Unknown,Unknown,Unknown
Escompte,Maxi,8691,Store 8691,Unknown,Unknown,QC,Unknown,Unknown,Unknown
Escompte,Maxi,8693,Store 8693,Unknown,Unknown,QC,Unknown,Unknown,Unknown
Escompte,Maxi,8694,Store 8694,Unknown,Unknown,QC,Unknown,Unknown,Unknown
Escompte,Maxi,8696,Store 8696,Unknown,Unknown,QC,Unknown,Unknown,Unknown
Escompte,Maxi,8702,Store 8702,Unknown,Unknown,QC,Unknown,Unknown,Unknown
Escompte,Maxi,8703,Store 8703,Unknown,Unknown,QC,Unknown,Unknown,Unknown
Escompte,Maxi,8704,Store 8704,Unknown,Unknown,QC,Unknown,Unknown,Unknown
Escompte,Maxi,8705,Store 8705,Unknown,Unknown,QC,Unknown,Unknown,Unknown
Escompte,Maxi,8706,Store 8706,Unknown,Unknown,QC,Unknown,Unknown,Unknown
Escompte,Maxi,8711,Store 8711,Unknown,Unknown,QC,Unknown,Unknown,Unknown
Escompte,Maxi,8772,Store 8772,Unknown,Unknown,QC,Unknown,Unknown,Unknown
Escompte,Maxi,8777,Store 8777,Unknown,Unknown,QC,Unknown,Unknown,Unknown
Escompte,Maxi,8795,Store 8795,Unknown,Unknown,QC,Unknown,Unknown,Unknown
Escompte,Maxi,8797,Store 8797,Unknown,Unknown,QC,Unknown,Unknown,Unknown
Super Market,Provigo Corporate,8807,Store 8807,Unknown,Unknown,QC,Unknown,Unknown,Unknown
Escompte,Maxi,8834,Store 8834,Unknown,Unknown,QC,Unknown,Unknown,Unknown
Super Market,Provigo Associated,8846,Store 8846,Unknown,Unknown,QC,Unknown,Unknown,Unknown
Escompte,Maxi,8856,Store 8856,Unknown,Unknown,QC,Unknown,Unknown,Unknown
Escompte,Maxi,8891,Store 8891,Unknown,Unknown,QC,Unknown,Unknown,Unknown
Escompte,Maxi,8900,Store 8900,Unknown,Unknown,QC,Unknown,Unknown,Unknown
Escompte,Maxi,8901,Store 8901,Unknown,Unknown,QC,Unknown,Unknown,Unknown
Escompte,Maxi,8904,Store 8904,Unknown,Unknown,QC,Unknown,Unknown,Unknown
Escompte,Maxi,8906,Store 8906,Unknown,Unknown,QC,Unknown,Unknown,Unknown
Escompte,Maxi,8907,Store 8907,Unknown,Unknown,QC,Unknown,Unknown,Unknown
Escompte,Maxi,8910,Store 8910,Unknown,Unknown,QC,Unknown,Unknown,Unknown
Escompte,Maxi,8911,Store 8911,Unknown,Unknown,QC,Unknown,Unknown,Unknown
Escompte,Maxi,8913,Store 8913,Unknown,Unknown,QC,Unknown,Unknown,Unknown
Escompte,Maxi,8914,Store 8914,Unknown,Unknown,QC,Unknown,Unknown,Unknown
Escompte,Maxi,8917,Store 8917,Unknown,Unknown,QC,Unknown,Unknown,Unknown
Escompte,Maxi,8922,Store 8922,Unknown,Unknown,QC,Unknown,Unknown,Unknown
Escompte,Maxi,8923,Store 8923,Unknown,Unknown,QC,Unknown,Unknown,Unknown
Escompte,Maxi,8924,Store 8924,Unknown,Unknown,QC,Unknown,Unknown,Unknown
Escompte,Maxi,8926,Store 8926,Unknown,Unknown,QC,Unknown,Unknown,Unknown
Escompte,Maxi,8929,Store 8929,Unknown,Unknown,QC,Unknown,Unknown,Unknown
Escompte,Maxi,8934,Store 8934,Unknown,Unknown,QC,Unknown,Unknown,Unknown
Escompte,Maxi,8935,Store 8935,Unknown,Unknown,QC,Unknown,Unknown,Unknown
Escompte,Maxi,8937,Store 8937,Unknown,Unknown,QC,Unknown,Unknown,Unknown
Escompte,Maxi,8939,Store 8939,Unknown,Unknown,QC,Unknown,Unknown,Unknown
Escompte,Maxi,8942,Store 8942,Unknown,Unknown,QC,Unknown,Unknown,Unknown
Escompte,Maxi,8944,Store 8944,Unknown,Unknown,QC,Unknown,Unknown,Unknown
Escompte,Maxi,8946,Store 8946,Unknown,Unknown,QC,Unknown,Unknown,Unknown
Escompte,Maxi,8947,Store 8947,Unknown,Unknown,QC,Unknown,Unknown,Unknown
Escompte,Maxi,8950,Store 8950,Unknown,Unknown,QC,Unknown,Unknown,Unknown
Escompte,Maxi,8955,Store 8955,Unknown,Unknown,QC,Unknown,Unknown,Unknown
Escompte,Maxi,8956,Store 8956,Unknown,Unknown,QC,Unknown,Unknown,Unknown
Escompte,Maxi,8958,Store 8958,Unknown,Unknown,QC,Unknown,Unknown,Unknown
Escompte,Maxi,8961,Store 8961,Unknown,Unknown,QC,Unknown,Unknown,Unknown
Escompte,Maxi,8963,Store 8963,Unknown,Unknown,QC,Unknown,Unknown,Unknown
Escompte,Maxi,8967,Store 8967,Unknown,Unknown,QC,Unknown,Unknown,Unknown
Escompte,Maxi,8968,Store 8968,Unknown,Unknown,QC,Unknown,Unknown,Unknown
Escompte,Maxi,8969,Store 8969,Unknown,Unknown,QC,Unknown,Unknown,Unknown
Escompte,Maxi,8971,Store 8971,Unknown,Unknown,QC,Unknown,Unknown,Unknown
Escompte,Maxi,8973,Store 8973,Unknown,Unknown,QC,Unknown,Unknown,Unknown
Escompte,Maxi,8974,Store 8974,Unknown,Unknown,QC,Unknown,Unknown,Unknown
Escompte,Maxi,8975,Store 8975,Unknown,Unknown,QC,Unknown,Unknown,Unknown
Escompte,Maxi,8976,Store 8976,Unknown,Unknown,QC,Unknown,Unknown,Unknown
Super Market,Provigo Franchise,8978,Store 8978,Unknown,Unknown,QC,Unknown,Unknown,Unknown
Escompte,Maxi,8981,Store 8981,Unknown,Unknown,QC,Unknown,Unknown,Unknown
Escompte,Maxi,8983,Store 8983,Unknown,Unknown,QC,Unknown,Unknown,Unknown
Escompte,Maxi,8984,Store 8984,Unknown,Unknown,QC,Unknown,Unknown,Unknown
Escompte,Maxi,8985,Store 8985,Unknown,Unknown,QC,Unknown,Unknown,Unknown
Escompte,Maxi,8987,Store 8987,Unknown,Unknown,QC,Unknown,Unknown,Unknown
Escompte,Maxi,8988,Store 8988,Unknown,Unknown,QC,Unknown,Unknown,Unknown
Escompte,Maxi,8989,Store 8989,Unknown,Unknown,QC,Unknown,Unknown,Unknown
Escompte,Maxi,8993,Store 8993,Unknown,Unknown,QC,Unknown,Unknown,Unknown
Escompte,Maxi,8994,Store 8994,Unknown,Unknown,QC,Unknown,Unknown,Unknown
Escompte,Maxi,8995,Store 8995,Unknown,Unknown,QC,Unknown,Unknown,Unknown
Escompte,Maxi,8996,Store 8996,Unknown,Unknown,QC,Unknown,Unknown,Unknown
Hard Discount,nofrills,9478,Store 9478,Unknown,Unknown,NS,Unknown,Unknown,Unknown
Super Market,valu-mart,9487,Store 9487,Unknown,Unknown,ON,Unknown,Unknown,Unknown
Super Market,Your Independent Grocer,9686,Store 9686,Unknown,Unknown,NS,Unknown,Unknown,Unknown
Super Market,Your Independent Grocer,9693,Store 9693,Unknown,Unknown,ON,Unknown,Unknown,Unknown
Hard Discount,nofrills,9694,Store 9694,Unknown,Unknown,SK,Unknown,Unknown,Unknown
Hard Discount,nofrills,9775,Store 9775,Unknown,Unknown,ON,Unknown,Unknown,Unknown
Hard Discount,no name,9486,Store 9486,Unknown,Unknown,ON,Unknown,Unknown,Unknown
Hard Discount,no name,9484,Store 9484,Unknown,Unknown,ON,Unknown,Unknown,Unknown
Hard Discount,no name,9485,Store 9485,Unknown,Unknown,ON,Unknown,Unknown,Unknown
