Banner Description,Operational Site,Store Name,Address,City,Province,Postal Code
Metro Quebec,643,Store 643,Unknown,Unknown,QC,Unknown
Metro Ontario,245,Store 245,Unknown,Unknown,ON,Unknown
Metro Quebec,412,Store 412,Unknown,Unknown,QC,Unknown
Metro Quebec,581,Store 581,Unknown,Unknown,QC,Unknown
Food Basics,73,Store 73,Unknown,Unknown,ON,Unknown
Metro Quebec,629,Store 629,Unknown,Unknown,QC,Unknown
Metro Ontario,121,Store 121,Unknown,Unknown,ON,Unknown
Food Basics,175,Store 175,Unknown,Unknown,ON,Unknown
SuperC,434,Store 434,Unknown,Unknown,QC,Unknown
Food Basics,486,Store 486,Unknown,Unknown,ON,Unknown
SuperC,646,Store 646,Unknown,Unknown,QC,Unknown
Metro Quebec,740,Store 740,Unknown,Unknown,QC,Unknown
Metro Quebec,587,Store 587,Unknown,Unknown,QC,Unknown
Metro Quebec,354,Store 354,Unknown,Unknown,QC,Unknown
Metro Quebec,712,Store 712,Unknown,Unknown,QC,Unknown
Food Basics,221,Store 221,Unknown,Unknown,ON,Unknown
Metro Quebec,376,Store 376,Unknown,Unknown,QC,Unknown
Metro Quebec,608,Store 608,Unknown,Unknown,QC,Unknown
Metro Quebec,701,Store 701,Unknown,Unknown,QC,Unknown
Metro Ontario,504,Store 504,Unknown,Unknown,ON,Unknown
Food Basics,331,Store 331,Unknown,Unknown,ON,Unknown
Metro Quebec,597,Store 597,Unknown,Unknown,QC,Unknown
Metro Quebec,381,Store 381,Unknown,Unknown,QC,Unknown
SuperC,450,Store 450,Unknown,Unknown,QC,Unknown
Food Basics,66,Store 66,Unknown,Unknown,ON,Unknown
Metro Quebec,757,Store 757,Unknown,Unknown,QC,Unknown
SuperC,455,Store 455,Unknown,Unknown,QC,Unknown
Metro Quebec,540,Store 540,Unknown,Unknown,QC,Unknown
SuperC,447,Store 447,Unknown,Unknown,QC,Unknown
Metro Ontario,88,Store 88,Unknown,Unknown,ON,Unknown
SuperC,826,Store 826,Unknown,Unknown,QC,Unknown
Metro Quebec,580,Store 580,Unknown,Unknown,QC,Unknown
Metro Quebec,588,Store 588,Unknown,Unknown,QC,Unknown
Food Basics,332,Store 332,Unknown,Unknown,ON,Unknown
Food Basics,522,Store 522,Unknown,Unknown,ON,Unknown
Metro Quebec,626,Store 626,Unknown,Unknown,QC,Unknown
Food Basics,118,Store 118,Unknown,Unknown,ON,Unknown
Metro Quebec,362,Store 362,Unknown,Unknown,QC,Unknown
Metro Quebec,586,Store 586,Unknown,Unknown,QC,Unknown
Food Basics,24,Store 24,Unknown,Unknown,ON,Unknown
Metro Quebec,687,Store 687,Unknown,Unknown,QC,Unknown
Food Basics,100,Store 100,Unknown,Unknown,ON,Unknown
Metro Quebec,654,Store 654,Unknown,Unknown,QC,Unknown
Metro Ontario,827,Store 827,Unknown,Unknown,ON,Unknown
Food Basics,841,Store 841,Unknown,Unknown,ON,Unknown
Metro Ontario,69,Store 69,Unknown,Unknown,ON,Unknown
SuperC,478,Store 478,Unknown,Unknown,QC,Unknown
Metro Ontario,206,Store 206,Unknown,Unknown,ON,Unknown
Metro Ontario,85,Store 85,Unknown,Unknown,ON,Unknown
SuperC,525,Store 525,Unknown,Unknown,QC,Unknown
Metro Ontario,103,Store 103,Unknown,Unknown,ON,Unknown
SuperC,439,Store 439,Unknown,Unknown,QC,Unknown
Food Basics,60,Store 60,Unknown,Unknown,ON,Unknown
Metro Quebec,395,Store 395,Unknown,Unknown,QC,Unknown
SuperC,468,Store 468,Unknown,Unknown,QC,Unknown
Food Basics,773,Store 773,Unknown,Unknown,ON,Unknown
Metro Quebec,675,Store 675,Unknown,Unknown,QC,Unknown
SuperC,462,Store 462,Unknown,Unknown,QC,Unknown
Metro Ontario,139,Store 139,Unknown,Unknown,ON,Unknown
SuperC,428,Store 428,Unknown,Unknown,QC,Unknown
SuperC,427,Store 427,Unknown,Unknown,QC,Unknown
Metro Ontario,123,Store 123,Unknown,Unknown,ON,Unknown
Food Basics,298,Store 298,Unknown,Unknown,ON,Unknown
Metro Quebec,604,Store 604,Unknown,Unknown,QC,Unknown
Food Basics,45,Store 45,Unknown,Unknown,ON,Unknown
SuperC,714,Store 714,Unknown,Unknown,QC,Unknown
Food Basics,761,Store 761,Unknown,Unknown,ON,Unknown
Metro Quebec,408,Store 408,Unknown,Unknown,QC,Unknown
Food Basics,1,Store 1,Unknown,Unknown,ON,Unknown
Food Basics,23,Store 23,Unknown,Unknown,ON,Unknown
Metro Ontario,236,Store 236,Unknown,Unknown,ON,Unknown
Metro Ontario,157,Store 157,Unknown,Unknown,ON,Unknown
Metro Ontario,137,Store 137,Unknown,Unknown,ON,Unknown
Metro Quebec,487,Store 487,Unknown,Unknown,QC,Unknown
Metro Quebec,584,Store 584,Unknown,Unknown,QC,Unknown
Metro Ontario,104,Store 104,Unknown,Unknown,ON,Unknown
Food Basics,318,Store 318,Unknown,Unknown,ON,Unknown
Metro Ontario,198,Store 198,Unknown,Unknown,ON,Unknown
Food Basics,762,Store 762,Unknown,Unknown,ON,Unknown
Food Basics,117,Store 117,Unknown,Unknown,ON,Unknown
Food Basics,186,Store 186,Unknown,Unknown,ON,Unknown
Metro Quebec,666,Store 666,Unknown,Unknown,QC,Unknown
SuperC,454,Store 454,Unknown,Unknown,QC,Unknown
Metro Quebec,407,Store 407,Unknown,Unknown,QC,Unknown
Metro Quebec,485,Store 485,Unknown,Unknown,QC,Unknown
Metro Quebec,659,Store 659,Unknown,Unknown,QC,Unknown
SuperC,706,Store 706,Unknown,Unknown,QC,Unknown
Metro Quebec,559,Store 559,Unknown,Unknown,QC,Unknown
Metro Ontario,267,Store 267,Unknown,Unknown,ON,Unknown
Food Basics,272,Store 272,Unknown,Unknown,ON,Unknown
SuperC,423,Store 423,Unknown,Unknown,QC,Unknown
Metro Quebec,680,Store 680,Unknown,Unknown,QC,Unknown
Metro Quebec,382,Store 382,Unknown,Unknown,QC,Unknown
SuperC,481,Store 481,Unknown,Unknown,QC,Unknown
Food Basics,116,Store 116,Unknown,Unknown,ON,Unknown
SuperC,812,Store 812,Unknown,Unknown,QC,Unknown
SuperC,896,Store 896,Unknown,Unknown,QC,Unknown
SuperC,900,Store 900,Unknown,Unknown,QC,Unknown
Metro Ontario,127,Store 127,Unknown,Unknown,ON,Unknown
Metro Ontario,26,Store 26,Unknown,Unknown,ON,Unknown
Food Basics,269,Store 269,Unknown,Unknown,ON,Unknown
Metro Quebec,349,Store 349,Unknown,Unknown,QC,Unknown
Food Basics,22,Store 22,Unknown,Unknown,ON,Unknown
Food Basics,38,Store 38,Unknown,Unknown,ON,Unknown
Metro Quebec,541,Store 541,Unknown,Unknown,QC,Unknown
Metro Ontario,99,Store 99,Unknown,Unknown,ON,Unknown
Metro Quebec,375,Store 375,Unknown,Unknown,QC,Unknown
Food Basics,830,Store 830,Unknown,Unknown,ON,Unknown
Metro Quebec,861,Store 861,Unknown,Unknown,QC,Unknown
Food Basics,864,Store 864,Unknown,Unknown,ON,Unknown
SuperC,884,Store 884,Unknown,Unknown,QC,Unknown
Metro Ontario,134,Store 134,Unknown,Unknown,ON,Unknown
Metro Quebec,628,Store 628,Unknown,Unknown,QC,Unknown
Metro Quebec,393,Store 393,Unknown,Unknown,QC,Unknown
Metro Quebec,689,Store 689,Unknown,Unknown,QC,Unknown
Metro Ontario,87,Store 87,Unknown,Unknown,ON,Unknown
Metro Ontario,64,Store 64,Unknown,Unknown,ON,Unknown
Food Basics,145,Store 145,Unknown,Unknown,ON,Unknown
Metro Quebec,371,Store 371,Unknown,Unknown,QC,Unknown
Metro Ontario,10,Store 10,Unknown,Unknown,ON,Unknown
Food Basics,323,Store 323,Unknown,Unknown,ON,Unknown
Food Basics,102,Store 102,Unknown,Unknown,ON,Unknown
SuperC,432,Store 432,Unknown,Unknown,QC,Unknown
SuperC,890,Store 890,Unknown,Unknown,QC,Unknown
Food Basics,133,Store 133,Unknown,Unknown,ON,Unknown
Metro Ontario,193,Store 193,Unknown,Unknown,ON,Unknown
Food Basics,339,Store 339,Unknown,Unknown,ON,Unknown
Food Basics,212,Store 212,Unknown,Unknown,ON,Unknown
Metro Quebec,353,Store 353,Unknown,Unknown,QC,Unknown
Metro Quebec,618,Store 618,Unknown,Unknown,QC,Unknown
Food Basics,122,Store 122,Unknown,Unknown,ON,Unknown
SuperC,458,Store 458,Unknown,Unknown,QC,Unknown
Metro Ontario,494,Store 494,Unknown,Unknown,ON,Unknown
Metro Quebec,718,Store 718,Unknown,Unknown,QC,Unknown
SuperC,810,Store 810,Unknown,Unknown,QC,Unknown
SuperC,885,Store 885,Unknown,Unknown,QC,Unknown
SuperC,895,Store 895,Unknown,Unknown,QC,Unknown
Metro Quebec,609,Store 609,Unknown,Unknown,QC,Unknown
Food Basics,208,Store 208,Unknown,Unknown,ON,Unknown
Metro Quebec,661,Store 661,Unknown,Unknown,QC,Unknown
Food Basics,131,Store 131,Unknown,Unknown,ON,Unknown
Metro Quebec,560,Store 560,Unknown,Unknown,QC,Unknown
Food Basics,739,Store 739,Unknown,Unknown,ON,Unknown
Food Basics,743,Store 743,Unknown,Unknown,ON,Unknown
Metro Ontario,52,Store 52,Unknown,Unknown,ON,Unknown
Metro Quebec,591,Store 591,Unknown,Unknown,QC,Unknown
Food Basics,68,Store 68,Unknown,Unknown,ON,Unknown
Food Basics,321,Store 321,Unknown,Unknown,ON,Unknown
SuperC,771,Store 771,Unknown,Unknown,QC,Unknown
Food Basics,804,Store 804,Unknown,Unknown,ON,Unknown
Metro Ontario,848,Store 848,Unknown,Unknown,ON,Unknown
Metro Ontario,851,Store 851,Unknown,Unknown,ON,Unknown
Food Basics,902,Store 902,Unknown,Unknown,ON,Unknown
Metro Ontario,71,Store 71,Unknown,Unknown,ON,Unknown
Metro Ontario,80,Store 80,Unknown,Unknown,ON,Unknown
Metro Quebec,679,Store 679,Unknown,Unknown,QC,Unknown
Metro Quebec,606,Store 606,Unknown,Unknown,QC,Unknown
Metro Ontario,183,Store 183,Unknown,Unknown,ON,Unknown
Metro Ontario,152,Store 152,Unknown,Unknown,ON,Unknown
Metro Ontario,261,Store 261,Unknown,Unknown,ON,Unknown
SuperC,304,Store 304,Unknown,Unknown,QC,Unknown
Metro Quebec,734,Store 734,Unknown,Unknown,QC,Unknown
Metro Quebec,542,Store 542,Unknown,Unknown,QC,Unknown
SuperC,436,Store 436,Unknown,Unknown,QC,Unknown
Food Basics,16,Store 16,Unknown,Unknown,ON,Unknown
Metro Quebec,534,Store 534,Unknown,Unknown,QC,Unknown
Food Basics,814,Store 814,Unknown,Unknown,ON,Unknown
Metro Ontario,903,Store 903,Unknown,Unknown,ON,Unknown
Metro Quebec,552,Store 552,Unknown,Unknown,QC,Unknown
Metro Ontario,43,Store 43,Unknown,Unknown,ON,Unknown
Metro Quebec,356,Store 356,Unknown,Unknown,QC,Unknown
SuperC,489,Store 489,Unknown,Unknown,QC,Unknown
Metro Quebec,343,Store 343,Unknown,Unknown,QC,Unknown
Metro Ontario,214,Store 214,Unknown,Unknown,ON,Unknown
Metro Ontario,84,Store 84,Unknown,Unknown,ON,Unknown
Metro Quebec,664,Store 664,Unknown,Unknown,QC,Unknown
SuperC,482,Store 482,Unknown,Unknown,QC,Unknown
Food Basics,36,Store 36,Unknown,Unknown,ON,Unknown
Metro Ontario,249,Store 249,Unknown,Unknown,ON,Unknown
Metro Quebec,551,Store 551,Unknown,Unknown,QC,Unknown
Metro Quebec,625,Store 625,Unknown,Unknown,QC,Unknown
Metro Quebec,161,Store 161,Unknown,Unknown,QC,Unknown
Metro Quebec,667,Store 667,Unknown,Unknown,QC,Unknown
Metro Ontario,806,Store 806,Unknown,Unknown,ON,Unknown
Food Basics,839,Store 839,Unknown,Unknown,ON,Unknown
Metro Quebec,862,Store 862,Unknown,Unknown,QC,Unknown
SuperC,882,Store 882,Unknown,Unknown,QC,Unknown
Food Basics,891,Store 891,Unknown,Unknown,ON,Unknown
Metro Quebec,533,Store 533,Unknown,Unknown,QC,Unknown
Metro Ontario,49,Store 49,Unknown,Unknown,ON,Unknown
Food Basics,19,Store 19,Unknown,Unknown,ON,Unknown
Metro Quebec,373,Store 373,Unknown,Unknown,QC,Unknown
Food Basics,27,Store 27,Unknown,Unknown,ON,Unknown
Food Basics,716,Store 716,Unknown,Unknown,ON,Unknown
Food Basics,148,Store 148,Unknown,Unknown,ON,Unknown
Metro Quebec,361,Store 361,Unknown,Unknown,QC,Unknown
Metro Quebec,724,Store 724,Unknown,Unknown,QC,Unknown
Food Basics,333,Store 333,Unknown,Unknown,ON,Unknown
Food Basics,46,Store 46,Unknown,Unknown,ON,Unknown
Food Basics,785,Store 785,Unknown,Unknown,ON,Unknown
SuperC,772,Store 772,Unknown,Unknown,QC,Unknown
Metro Ontario,273,Store 273,Unknown,Unknown,ON,Unknown
Metro Quebec,683,Store 683,Unknown,Unknown,QC,Unknown
Food Basics,738,Store 738,Unknown,Unknown,ON,Unknown
Food Basics,324,Store 324,Unknown,Unknown,ON,Unknown
Metro Quebec,545,Store 545,Unknown,Unknown,QC,Unknown
Metro Ontario,28,Store 28,Unknown,Unknown,ON,Unknown
Food Basics,240,Store 240,Unknown,Unknown,ON,Unknown
SuperC,459,Store 459,Unknown,Unknown,QC,Unknown
Food Basics,650,Store 650,Unknown,Unknown,ON,Unknown
Metro Ontario,247,Store 247,Unknown,Unknown,ON,Unknown
SuperC,737,Store 737,Unknown,Unknown,QC,Unknown
Metro Quebec,673,Store 673,Unknown,Unknown,QC,Unknown
Metro Ontario,835,Store 835,Unknown,Unknown,ON,Unknown
Metro Ontario,110,Store 110,Unknown,Unknown,ON,Unknown
Metro Ontario,210,Store 210,Unknown,Unknown,ON,Unknown
Metro Ontario,187,Store 187,Unknown,Unknown,ON,Unknown
Metro Quebec,402,Store 402,Unknown,Unknown,QC,Unknown
SuperC,435,Store 435,Unknown,Unknown,QC,Unknown
SuperC,480,Store 480,Unknown,Unknown,QC,Unknown
Metro Ontario,179,Store 179,Unknown,Unknown,ON,Unknown
SuperC,441,Store 441,Unknown,Unknown,QC,Unknown
SuperC,695,Store 695,Unknown,Unknown,QC,Unknown
SuperC,747,Store 747,Unknown,Unknown,QC,Unknown
Metro Ontario,511,Store 511,Unknown,Unknown,ON,Unknown
Metro Quebec,702,Store 702,Unknown,Unknown,QC,Unknown
Metro Quebec,776,Store 776,Unknown,Unknown,QC,Unknown
Food Basics,836,Store 836,Unknown,Unknown,ON,Unknown
Food Basics,846,Store 846,Unknown,Unknown,ON,Unknown
Metro Quebec,669,Store 669,Unknown,Unknown,QC,Unknown
Food Basics,54,Store 54,Unknown,Unknown,ON,Unknown
Metro Ontario,144,Store 144,Unknown,Unknown,ON,Unknown
Metro Quebec,553,Store 553,Unknown,Unknown,QC,Unknown
Food Basics,132,Store 132,Unknown,Unknown,ON,Unknown
Food Basics,758,Store 758,Unknown,Unknown,ON,Unknown
Metro Ontario,516,Store 516,Unknown,Unknown,ON,Unknown
SuperC,475,Store 475,Unknown,Unknown,QC,Unknown
Metro Quebec,576,Store 576,Unknown,Unknown,QC,Unknown
Food Basics,224,Store 224,Unknown,Unknown,ON,Unknown
Metro Ontario,140,Store 140,Unknown,Unknown,ON,Unknown
Metro Quebec,681,Store 681,Unknown,Unknown,QC,Unknown
SuperC,815,Store 815,Unknown,Unknown,QC,Unknown
Food Basics,829,Store 829,Unknown,Unknown,ON,Unknown
Metro Ontario,34,Store 34,Unknown,Unknown,ON,Unknown
Metro Quebec,366,Store 366,Unknown,Unknown,QC,Unknown
Metro Quebec,557,Store 557,Unknown,Unknown,QC,Unknown
Food Basics,37,Store 37,Unknown,Unknown,ON,Unknown
Metro Quebec,656,Store 656,Unknown,Unknown,QC,Unknown
Metro Quebec,577,Store 577,Unknown,Unknown,QC,Unknown
SuperC,312,Store 312,Unknown,Unknown,QC,Unknown
SuperC,648,Store 648,Unknown,Unknown,QC,Unknown
Metro Quebec,346,Store 346,Unknown,Unknown,QC,Unknown
Food Basics,651,Store 651,Unknown,Unknown,ON,Unknown
Metro Quebec,671,Store 671,Unknown,Unknown,QC,Unknown
Food Basics,204,Store 204,Unknown,Unknown,ON,Unknown
SuperC,474,Store 474,Unknown,Unknown,QC,Unknown
Metro Quebec,698,Store 698,Unknown,Unknown,QC,Unknown
SuperC,887,Store 887,Unknown,Unknown,QC,Unknown
SuperC,465,Store 465,Unknown,Unknown,QC,Unknown
Metro Ontario,509,Store 509,Unknown,Unknown,ON,Unknown
Metro Quebec,613,Store 613,Unknown,Unknown,QC,Unknown
Metro Quebec,538,Store 538,Unknown,Unknown,QC,Unknown
SuperC,461,Store 461,Unknown,Unknown,QC,Unknown
Metro Quebec,401,Store 401,Unknown,Unknown,QC,Unknown
Metro Quebec,603,Store 603,Unknown,Unknown,QC,Unknown
Food Basics,56,Store 56,Unknown,Unknown,ON,Unknown
Metro Quebec,677,Store 677,Unknown,Unknown,QC,Unknown
Metro Ontario,215,Store 215,Unknown,Unknown,ON,Unknown
Food Basics,143,Store 143,Unknown,Unknown,ON,Unknown
Metro Ontario,508,Store 508,Unknown,Unknown,ON,Unknown
Food Basics,316,Store 316,Unknown,Unknown,ON,Unknown
SuperC,430,Store 430,Unknown,Unknown,QC,Unknown
Food Basics,108,Store 108,Unknown,Unknown,ON,Unknown
Food Basics,760,Store 760,Unknown,Unknown,ON,Unknown
Food Basics,824,Store 824,Unknown,Unknown,ON,Unknown
Metro Ontario,190,Store 190,Unknown,Unknown,ON,Unknown
Metro Ontario,514,Store 514,Unknown,Unknown,ON,Unknown
Metro Quebec,615,Store 615,Unknown,Unknown,QC,Unknown
Metro Ontario,171,Store 171,Unknown,Unknown,ON,Unknown
Metro Ontario,275,Store 275,Unknown,Unknown,ON,Unknown
Metro Quebec,342,Store 342,Unknown,Unknown,QC,Unknown
Food Basics,291,Store 291,Unknown,Unknown,ON,Unknown
SuperC,649,Store 649,Unknown,Unknown,QC,Unknown
Metro Quebec,377,Store 377,Unknown,Unknown,QC,Unknown
Food Basics,58,Store 58,Unknown,Unknown,ON,Unknown
Metro Quebec,684,Store 684,Unknown,Unknown,QC,Unknown
SuperC,477,Store 477,Unknown,Unknown,QC,Unknown
Food Basics,4,Store 4,Unknown,Unknown,ON,Unknown
Food Basics,818,Store 818,Unknown,Unknown,ON,Unknown
Metro Quebec,546,Store 546,Unknown,Unknown,QC,Unknown
SuperC,755,Store 755,Unknown,Unknown,QC,Unknown
Metro Ontario,130,Store 130,Unknown,Unknown,ON,Unknown
Metro Ontario,7,Store 7,Unknown,Unknown,ON,Unknown
Food Basics,124,Store 124,Unknown,Unknown,ON,Unknown
Food Basics,62,Store 62,Unknown,Unknown,ON,Unknown
Metro Quebec,569,Store 569,Unknown,Unknown,QC,Unknown
SuperC,437,Store 437,Unknown,Unknown,QC,Unknown
Food Basics,53,Store 53,Unknown,Unknown,ON,Unknown
Metro Ontario,495,Store 495,Unknown,Unknown,ON,Unknown
Metro Quebec,570,Store 570,Unknown,Unknown,QC,Unknown
Metro Quebec,775,Store 775,Unknown,Unknown,QC,Unknown
Food Basics,857,Store 857,Unknown,Unknown,ON,Unknown
Metro Quebec,892,Store 892,Unknown,Unknown,QC,Unknown
Metro Ontario,25,Store 25,Unknown,Unknown,ON,Unknown
Metro Ontario,281,Store 281,Unknown,Unknown,ON,Unknown
Metro Ontario,111,Store 111,Unknown,Unknown,ON,Unknown
Metro Ontario,31,Store 31,Unknown,Unknown,ON,Unknown
Food Basics,337,Store 337,Unknown,Unknown,ON,Unknown
Metro Ontario,241,Store 241,Unknown,Unknown,ON,Unknown
Metro Quebec,413,Store 413,Unknown,Unknown,QC,Unknown
Metro Ontario,2,Store 2,Unknown,Unknown,ON,Unknown
SuperC,476,Store 476,Unknown,Unknown,QC,Unknown
Metro Ontario,519,Store 519,Unknown,Unknown,ON,Unknown
Food Basics,192,Store 192,Unknown,Unknown,ON,Unknown
Metro Quebec,766,Store 766,Unknown,Unknown,QC,Unknown
Food Basics,837,Store 837,Unknown,Unknown,ON,Unknown
Metro Ontario,8,Store 8,Unknown,Unknown,ON,Unknown
Metro Ontario,78,Store 78,Unknown,Unknown,ON,Unknown
Metro Quebec,726,Store 726,Unknown,Unknown,QC,Unknown
Metro Ontario,151,Store 151,Unknown,Unknown,ON,Unknown
SuperC,467,Store 467,Unknown,Unknown,QC,Unknown
Metro Ontario,529,Store 529,Unknown,Unknown,ON,Unknown
Metro Ontario,510,Store 510,Unknown,Unknown,ON,Unknown
Metro Quebec,703,Store 703,Unknown,Unknown,QC,Unknown
Metro Quebec,711,Store 711,Unknown,Unknown,QC,Unknown
Metro Ontario,229,Store 229,Unknown,Unknown,ON,Unknown
SuperC,768,Store 768,Unknown,Unknown,QC,Unknown
SuperC,780,Store 780,Unknown,Unknown,QC,Unknown
Metro Quebec,694,Store 694,Unknown,Unknown,QC,Unknown
Food Basics,831,Store 831,Unknown,Unknown,ON,Unknown
Food Basics,863,Store 863,Unknown,Unknown,ON,Unknown
Metro Quebec,632,Store 632,Unknown,Unknown,QC,Unknown
Metro Quebec,741,Store 741,Unknown,Unknown,QC,Unknown
Metro Quebec,691,Store 691,Unknown,Unknown,QC,Unknown
Metro Quebec,554,Store 554,Unknown,Unknown,QC,Unknown
Metro Quebec,612,Store 612,Unknown,Unknown,QC,Unknown
SuperC,456,Store 456,Unknown,Unknown,QC,Unknown
Food Basics,50,Store 50,Unknown,Unknown,ON,Unknown
Metro Quebec,409,Store 409,Unknown,Unknown,QC,Unknown
Metro Ontario,21,Store 21,Unknown,Unknown,ON,Unknown
Metro Quebec,585,Store 585,Unknown,Unknown,QC,Unknown
Metro Quebec,657,Store 657,Unknown,Unknown,QC,Unknown
SuperC,483,Store 483,Unknown,Unknown,QC,Unknown
SuperC,443,Store 443,Unknown,Unknown,QC,Unknown
Food Basics,20,Store 20,Unknown,Unknown,ON,Unknown
Food Basics,299,Store 299,Unknown,Unknown,ON,Unknown
Metro Ontario,41,Store 41,Unknown,Unknown,ON,Unknown
Food Basics,81,Store 81,Unknown,Unknown,ON,Unknown
Metro Quebec,630,Store 630,Unknown,Unknown,QC,Unknown
Metro Ontario,507,Store 507,Unknown,Unknown,ON,Unknown
Metro Quebec,693,Store 693,Unknown,Unknown,QC,Unknown
Metro Ontario,263,Store 263,Unknown,Unknown,ON,Unknown
Metro Ontario,257,Store 257,Unknown,Unknown,ON,Unknown
SuperC,457,Store 457,Unknown,Unknown,QC,Unknown
SuperC,704,Store 704,Unknown,Unknown,QC,Unknown
SuperC,722,Store 722,Unknown,Unknown,QC,Unknown
SuperC,786,Store 786,Unknown,Unknown,QC,Unknown
SuperC,904,Store 904,Unknown,Unknown,QC,Unknown
Metro Quebec,566,Store 566,Unknown,Unknown,QC,Unknown
Metro Ontario,13,Store 13,Unknown,Unknown,ON,Unknown
SuperC,728,Store 728,Unknown,Unknown,QC,Unknown
Metro Ontario,496,Store 496,Unknown,Unknown,ON,Unknown
Food Basics,119,Store 119,Unknown,Unknown,ON,Unknown
Food Basics,302,Store 302,Unknown,Unknown,ON,Unknown
SuperC,732,Store 732,Unknown,Unknown,QC,Unknown
Food Basics,59,Store 59,Unknown,Unknown,ON,Unknown
Metro Quebec,690,Store 690,Unknown,Unknown,QC,Unknown
SuperC,471,Store 471,Unknown,Unknown,QC,Unknown
Metro Quebec,596,Store 596,Unknown,Unknown,QC,Unknown
Food Basics,136,Store 136,Unknown,Unknown,ON,Unknown
Food Basics,336,Store 336,Unknown,Unknown,ON,Unknown
Metro Quebec,725,Store 725,Unknown,Unknown,QC,Unknown
Food Basics,865,Store 865,Unknown,Unknown,ON,Unknown
SuperC,479,Store 479,Unknown,Unknown,QC,Unknown
Food Basics,523,Store 523,Unknown,Unknown,ON,Unknown
Metro Quebec,378,Store 378,Unknown,Unknown,QC,Unknown
Metro Quebec,374,Store 374,Unknown,Unknown,QC,Unknown
Metro Quebec,396,Store 396,Unknown,Unknown,QC,Unknown
Metro Ontario,498,Store 498,Unknown,Unknown,ON,Unknown
Metro Ontario,89,Store 89,Unknown,Unknown,ON,Unknown
Food Basics,33,Store 33,Unknown,Unknown,ON,Unknown
SuperC,705,Store 705,Unknown,Unknown,QC,Unknown
Metro Ontario,517,Store 517,Unknown,Unknown,ON,Unknown
SuperC,484,Store 484,Unknown,Unknown,QC,Unknown
Food Basics,285,Store 285,Unknown,Unknown,ON,Unknown
Food Basics,44,Store 44,Unknown,Unknown,ON,Unknown
Food Basics,308,Store 308,Unknown,Unknown,ON,Unknown
Food Basics,731,Store 731,Unknown,Unknown,ON,Unknown
Metro Quebec,555,Store 555,Unknown,Unknown,QC,Unknown
Metro Quebec,696,Store 696,Unknown,Unknown,QC,Unknown
Metro Ontario,135,Store 135,Unknown,Unknown,ON,Unknown
Metro Ontario,76,Store 76,Unknown,Unknown,ON,Unknown
SuperC,426,Store 426,Unknown,Unknown,QC,Unknown
Metro Quebec,697,Store 697,Unknown,Unknown,QC,Unknown
Metro Quebec,723,Store 723,Unknown,Unknown,QC,Unknown
SuperC,451,Store 451,Unknown,Unknown,QC,Unknown
Food Basics,744,Store 744,Unknown,Unknown,ON,Unknown
Food Basics,320,Store 320,Unknown,Unknown,ON,Unknown
Metro Quebec,685,Store 685,Unknown,Unknown,QC,Unknown
SuperC,466,Store 466,Unknown,Unknown,QC,Unknown
SuperC,729,Store 729,Unknown,Unknown,QC,Unknown
Metro Quebec,572,Store 572,Unknown,Unknown,QC,Unknown
Metro Quebec,736,Store 736,Unknown,Unknown,QC,Unknown
Metro Quebec,616,Store 616,Unknown,Unknown,QC,Unknown
Food Basics,840,Store 840,Unknown,Unknown,ON,Unknown
Metro Ontario,74,Store 74,Unknown,Unknown,ON,Unknown
Metro Quebec,404,Store 404,Unknown,Unknown,QC,Unknown
SuperC,433,Store 433,Unknown,Unknown,QC,Unknown
Food Basics,3,Store 3,Unknown,Unknown,ON,Unknown
Metro Quebec,634,Store 634,Unknown,Unknown,QC,Unknown
Metro Quebec,641,Store 641,Unknown,Unknown,QC,Unknown
Metro Ontario,82,Store 82,Unknown,Unknown,ON,Unknown
SuperC,438,Store 438,Unknown,Unknown,QC,Unknown
Food Basics,334,Store 334,Unknown,Unknown,ON,Unknown
Metro Quebec,592,Store 592,Unknown,Unknown,QC,Unknown
Metro Quebec,383,Store 383,Unknown,Unknown,QC,Unknown
Metro Quebec,655,Store 655,Unknown,Unknown,QC,Unknown
Food Basics,106,Store 106,Unknown,Unknown,ON,Unknown
SuperC,431,Store 431,Unknown,Unknown,QC,Unknown
Metro Ontario,774,Store 774,Unknown,Unknown,ON,Unknown
Metro Ontario,893,Store 893,Unknown,Unknown,ON,Unknown
SuperC,647,Store 647,Unknown,Unknown,QC,Unknown
Metro Quebec,537,Store 537,Unknown,Unknown,QC,Unknown
Metro Quebec,365,Store 365,Unknown,Unknown,QC,Unknown
Food Basics,338,Store 338,Unknown,Unknown,ON,Unknown
SuperC,446,Store 446,Unknown,Unknown,QC,Unknown
SuperC,445,Store 445,Unknown,Unknown,QC,Unknown
Food Basics,120,Store 120,Unknown,Unknown,ON,Unknown
SuperC,713,Store 713,Unknown,Unknown,QC,Unknown
Food Basics,253,Store 253,Unknown,Unknown,ON,Unknown
Metro Quebec,369,Store 369,Unknown,Unknown,QC,Unknown
Food Basics,763,Store 763,Unknown,Unknown,ON,Unknown
SuperC,847,Store 847,Unknown,Unknown,QC,Unknown
SuperC,886,Store 886,Unknown,Unknown,QC,Unknown
Metro Ontario,32,Store 32,Unknown,Unknown,ON,Unknown
Metro Quebec,623,Store 623,Unknown,Unknown,QC,Unknown
Metro Ontario,14,Store 14,Unknown,Unknown,ON,Unknown
Metro Quebec,411,Store 411,Unknown,Unknown,QC,Unknown
SuperC,488,Store 488,Unknown,Unknown,QC,Unknown
Metro Ontario,129,Store 129,Unknown,Unknown,ON,Unknown
Metro Ontario,141,Store 141,Unknown,Unknown,ON,Unknown
Food Basics,181,Store 181,Unknown,Unknown,ON,Unknown
Metro Ontario,327,Store 327,Unknown,Unknown,ON,Unknown
Metro Ontario,234,Store 234,Unknown,Unknown,ON,Unknown
Food Basics,51,Store 51,Unknown,Unknown,ON,Unknown
Food Basics,228,Store 228,Unknown,Unknown,ON,Unknown
Metro Ontario,521,Store 521,Unknown,Unknown,ON,Unknown
Metro Quebec,535,Store 535,Unknown,Unknown,QC,Unknown
Metro Quebec,658,Store 658,Unknown,Unknown,QC,Unknown
Food Basics,17,Store 17,Unknown,Unknown,ON,Unknown
SuperC,816,Store 816,Unknown,Unknown,QC,Unknown
Food Basics,842,Store 842,Unknown,Unknown,ON,Unknown
Metro Ontario,492,Store 492,Unknown,Unknown,ON,Unknown
Metro Ontario,199,Store 199,Unknown,Unknown,ON,Unknown
Metro Ontario,109,Store 109,Unknown,Unknown,ON,Unknown
Metro Ontario,153,Store 153,Unknown,Unknown,ON,Unknown
Metro Quebec,620,Store 620,Unknown,Unknown,QC,Unknown
Food Basics,90,Store 90,Unknown,Unknown,ON,Unknown
Food Basics,293,Store 293,Unknown,Unknown,ON,Unknown
SuperC,470,Store 470,Unknown,Unknown,QC,Unknown
Metro Ontario,499,Store 499,Unknown,Unknown,ON,Unknown
Metro Quebec,589,Store 589,Unknown,Unknown,QC,Unknown
Metro Quebec,372,Store 372,Unknown,Unknown,QC,Unknown
Metro Ontario,128,Store 128,Unknown,Unknown,ON,Unknown
Metro Quebec,532,Store 532,Unknown,Unknown,QC,Unknown
Food Basics,260,Store 260,Unknown,Unknown,ON,Unknown
Metro Quebec,717,Store 717,Unknown,Unknown,QC,Unknown
Food Basics,75,Store 75,Unknown,Unknown,ON,Unknown
Metro Ontario,515,Store 515,Unknown,Unknown,ON,Unknown
Metro Ontario,98,Store 98,Unknown,Unknown,ON,Unknown
Metro Quebec,564,Store 564,Unknown,Unknown,QC,Unknown
Metro Quebec,420,Store 420,Unknown,Unknown,QC,Unknown
Metro Ontario,167,Store 167,Unknown,Unknown,ON,Unknown
Metro Quebec,565,Store 565,Unknown,Unknown,QC,Unknown
Metro Ontario,506,Store 506,Unknown,Unknown,ON,Unknown
SuperC,727,Store 727,Unknown,Unknown,QC,Unknown
Metro Quebec,644,Store 644,Unknown,Unknown,QC,Unknown
Metro Quebec,410,Store 410,Unknown,Unknown,QC,Unknown
Metro Quebec,543,Store 543,Unknown,Unknown,QC,Unknown
SuperC,473,Store 473,Unknown,Unknown,QC,Unknown
Metro Ontario,112,Store 112,Unknown,Unknown,ON,Unknown
Metro Quebec,351,Store 351,Unknown,Unknown,QC,Unknown
Metro Quebec,859,Store 859,Unknown,Unknown,QC,Unknown
SuperC,888,Store 888,Unknown,Unknown,QC,Unknown
Metro Quebec,548,Store 548,Unknown,Unknown,QC,Unknown
Metro Quebec,599,Store 599,Unknown,Unknown,QC,Unknown
Metro Ontario,55,Store 55,Unknown,Unknown,ON,Unknown
Metro Ontario,286,Store 286,Unknown,Unknown,ON,Unknown
Food Basics,220,Store 220,Unknown,Unknown,ON,Unknown
Metro Ontario,497,Store 497,Unknown,Unknown,ON,Unknown
Metro Ontario,201,Store 201,Unknown,Unknown,ON,Unknown
SuperC,460,Store 460,Unknown,Unknown,QC,Unknown
Metro Ontario,113,Store 113,Unknown,Unknown,ON,Unknown
Metro Quebec,387,Store 387,Unknown,Unknown,QC,Unknown
Food Basics,306,Store 306,Unknown,Unknown,ON,Unknown
Food Basics,6,Store 6,Unknown,Unknown,ON,Unknown
Food Basics,819,Store 819,Unknown,Unknown,ON,Unknown
Metro Ontario,520,Store 520,Unknown,Unknown,ON,Unknown
SuperC,897,Store 897,Unknown,Unknown,QC,Unknown
Food Basics,531,Store 531,Unknown,Unknown,ON,Unknown
Metro Ontario,340,Store 340,Unknown,Unknown,ON,Unknown
Metro Quebec,556,Store 556,Unknown,Unknown,QC,Unknown
SuperC,526,Store 526,Unknown,Unknown,QC,Unknown
Metro Quebec,575,Store 575,Unknown,Unknown,QC,Unknown
Metro Quebec,624,Store 624,Unknown,Unknown,QC,Unknown
Food Basics,297,Store 297,Unknown,Unknown,ON,Unknown
SuperC,464,Store 464,Unknown,Unknown,QC,Unknown
Metro Quebec,579,Store 579,Unknown,Unknown,QC,Unknown
Metro Quebec,380,Store 380,Unknown,Unknown,QC,Unknown
Food Basics,296,Store 296,Unknown,Unknown,ON,Unknown
SuperC,448,Store 448,Unknown,Unknown,QC,Unknown
Metro Quebec,617,Store 617,Unknown,Unknown,QC,Unknown
Metro Ontario,825,Store 825,Unknown,Unknown,ON,Unknown
Food Basics,849,Store 849,Unknown,Unknown,ON,Unknown
Metro Quebec,358,Store 358,Unknown,Unknown,QC,Unknown
Metro Quebec,563,Store 563,Unknown,Unknown,QC,Unknown
Metro Quebec,682,Store 682,Unknown,Unknown,QC,Unknown
Metro Quebec,660,Store 660,Unknown,Unknown,QC,Unknown
Metro Quebec,665,Store 665,Unknown,Unknown,QC,Unknown
Food Basics,300,Store 300,Unknown,Unknown,ON,Unknown
Metro Quebec,360,Store 360,Unknown,Unknown,QC,Unknown
Food Basics,39,Store 39,Unknown,Unknown,ON,Unknown
Food Basics,125,Store 125,Unknown,Unknown,ON,Unknown
Metro Ontario,95,Store 95,Unknown,Unknown,ON,Unknown
SuperC,425,Store 425,Unknown,Unknown,QC,Unknown
Food Basics,12,Store 12,Unknown,Unknown,ON,Unknown
Metro Ontario,165,Store 165,Unknown,Unknown,ON,Unknown
SuperC,756,Store 756,Unknown,Unknown,QC,Unknown
Metro Quebec,352,Store 352,Unknown,Unknown,QC,Unknown
SuperC,787,Store 787,Unknown,Unknown,QC,Unknown
SuperC,813,Store 813,Unknown,Unknown,QC,Unknown
Metro Quebec,853,Store 853,Unknown,Unknown,QC,Unknown
Metro Quebec,390,Store 390,Unknown,Unknown,QC,Unknown
Metro Ontario,518,Store 518,Unknown,Unknown,ON,Unknown
Metro Quebec,549,Store 549,Unknown,Unknown,QC,Unknown
Metro Ontario,57,Store 57,Unknown,Unknown,ON,Unknown
SuperC,469,Store 469,Unknown,Unknown,QC,Unknown
SuperC,444,Store 444,Unknown,Unknown,QC,Unknown
Metro Quebec,601,Store 601,Unknown,Unknown,QC,Unknown
Metro Quebec,674,Store 674,Unknown,Unknown,QC,Unknown
SuperC,429,Store 429,Unknown,Unknown,QC,Unknown
Metro Quebec,611,Store 611,Unknown,Unknown,QC,Unknown
Metro Quebec,636,Store 636,Unknown,Unknown,QC,Unknown
Metro Quebec,386,Store 386,Unknown,Unknown,QC,Unknown
Food Basics,18,Store 18,Unknown,Unknown,ON,Unknown
Food Basics,828,Store 828,Unknown,Unknown,ON,Unknown
Metro Ontario,502,Store 502,Unknown,Unknown,ON,Unknown
Metro Quebec,399,Store 399,Unknown,Unknown,QC,Unknown
Food Basics,314,Store 314,Unknown,Unknown,ON,Unknown
Metro Ontario,63,Store 63,Unknown,Unknown,ON,Unknown
Metro Quebec,686,Store 686,Unknown,Unknown,QC,Unknown
Metro Quebec,672,Store 672,Unknown,Unknown,QC,Unknown
Food Basics,72,Store 72,Unknown,Unknown,ON,Unknown
Food Basics,218,Store 218,Unknown,Unknown,ON,Unknown
Metro Quebec,384,Store 384,Unknown,Unknown,QC,Unknown
Metro Ontario,159,Store 159,Unknown,Unknown,ON,Unknown
Metro Ontario,91,Store 91,Unknown,Unknown,ON,Unknown
SuperC,452,Store 452,Unknown,Unknown,QC,Unknown
SuperC,472,Store 472,Unknown,Unknown,QC,Unknown
Food Basics,15,Store 15,Unknown,Unknown,ON,Unknown
Metro Quebec,688,Store 688,Unknown,Unknown,QC,Unknown
Metro Ontario,138,Store 138,Unknown,Unknown,ON,Unknown
Metro Ontario,265,Store 265,Unknown,Unknown,ON,Unknown
Metro Ontario,105,Store 105,Unknown,Unknown,ON,Unknown
Metro Quebec,355,Store 355,Unknown,Unknown,QC,Unknown
SuperC,442,Store 442,Unknown,Unknown,QC,Unknown
Metro Quebec,662,Store 662,Unknown,Unknown,QC,Unknown
SuperC,715,Store 715,Unknown,Unknown,QC,Unknown
Food Basics,42,Store 42,Unknown,Unknown,ON,Unknown
Metro Ontario,503,Store 503,Unknown,Unknown,ON,Unknown
Food Basics,92,Store 92,Unknown,Unknown,ON,Unknown
Metro Ontario,501,Store 501,Unknown,Unknown,ON,Unknown
Metro Quebec,405,Store 405,Unknown,Unknown,QC,Unknown
SuperC,463,Store 463,Unknown,Unknown,QC,Unknown
Metro Quebec,627,Store 627,Unknown,Unknown,QC,Unknown
SuperC,440,Store 440,Unknown,Unknown,QC,Unknown
Metro Quebec,777,Store 777,Unknown,Unknown,QC,Unknown
SuperC,341,Store 341,Unknown,Unknown,QC,Unknown
SuperC,633,Store 633,Unknown,Unknown,QC,Unknown
Metro Quebec,906,Store 906,Unknown,Unknown,QC,Unknown
SuperC,344,Store 344,Unknown,Unknown,QC,Unknown
Metro Quebec,907,Store 907,Unknown,Unknown,QC,Unknown
Metro Quebec,347,Store 347,Unknown,Unknown,QC,Unknown
Metro Quebec,607,Store 607,Unknown,Unknown,QC,Unknown
Metro Quebec,593,Store 593,Unknown,Unknown,QC,Unknown
Metro Quebec,350,Store 350,Unknown,Unknown,QC,Unknown
FOOD BASICS,902,Store 902,Unknown,Unknown,ON,Unknown
Metro Ontario,903,Store 903,Unknown,Unknown,ON,Unknown
SuperC,904,Store 904,Unknown,Unknown,QC,Unknown
SuperC,900,Store 900,Unknown,Unknown,QC,Unknown
SuperC,887,Store 887,Unknown,Unknown,QC,Unknown
SuperC,897,Store 897,Unknown,Unknown,QC,Unknown
Metro Quebec,616,Store 616,Unknown,Unknown,QC,Unknown
Metro Quebec,577,Store 577,Unknown,Unknown,QC,Unknown
